{"type":"Feature","properties":{"name":"Deutschland, Österreich, Schweiz, Liechtenstein","attribution":"© GeoBasis-DE / BKG (dl-de/by-2-0) · Natural Earth"},"geometry":{"type":"MultiPolygon","coordinates":[[[[8.5182,54.5788],[8.5173,54.5699],[8.5381,54.5648],[8.548,54.557],[8.5756,54.5605],[8.5573,54.5786],[8.5327,54.5752],[8.5182,54.5788]]],[[[8.6568,54.6437],[8.6635,54.6559],[8.6519,54.6576],[8.637,54.6492],[8.6027,54.6419],[8.5537,54.6355],[8.5405,54.6364],[8.5289,54.6273],[8.5485,54.6203],[8.5846,54.6341],[8.6026,54.633],[8.6468,54.6393],[8.6568,54.6437]]],[[[8.3424,54.6936],[8.3206,54.6918],[8.3032,54.6796],[8.2963,54.6641],[8.3056,54.6532],[8.3408,54.6262],[8.3674,54.6084],[8.3955,54.6132],[8.3821,54.6398],[8.362,54.6491],[8.3424,54.6936]]],[[[8.705,54.5576],[8.6864,54.5571],[8.6681,54.55],[8.641,54.5454],[8.6228,54.535],[8.5979,54.5343],[8.5875,54.5278],[8.5922,54.5087],[8.6207,54.49],[8.6381,54.4894],[8.6698,54.4945],[8.6831,54.5026],[8.706,54.5376],[8.7109,54.553],[8.705,54.5576]]],[[[8.5633,54.7524],[8.5373,54.7559],[8.5211,54.7516],[8.4626,54.7499],[8.4273,54.7462],[8.411,54.7371],[8.3972,54.7199],[8.3965,54.7042],[8.4318,54.6939],[8.4536,54.692],[8.4707,54.6826],[8.4849,54.6803],[8.5284,54.6815],[8.5665,54.68],[8.5857,54.7139],[8.5887,54.741],[8.5633,54.7524]]],[[[7.5963,47.5867],[7.586,47.5846],[7.5855,47.5845],[7.5503,47.5755],[7.5263,47.5665],[7.5209,47.5634],[7.4827,47.5423],[7.4851,47.5416],[7.5017,47.533],[7.5052,47.533],[7.5055,47.523],[7.5011,47.5173],[7.4931,47.5155],[7.4827,47.517],[7.4769,47.5149],[7.4756,47.5117],[7.4778,47.5077],[7.4849,47.5009],[7.4858,47.4988],[7.4859,47.4984],[7.4858,47.4958],[7.4845,47.4929],[7.4827,47.4913],[7.4674,47.4819],[7.4545,47.4832],[7.446,47.4869],[7.4415,47.4888],[7.426,47.4925],[7.4143,47.4902],[7.4144,47.484],[7.4195,47.4779],[7.4228,47.4754],[7.4276,47.4707],[7.4293,47.4651],[7.4261,47.4558],[7.4206,47.4509],[7.4063,47.4382],[7.3882,47.4333],[7.3785,47.4306],[7.3369,47.4319],[7.3091,47.4327],[7.2826,47.4289],[7.2448,47.4177],[7.2381,47.4168],[7.2303,47.419],[7.2263,47.4226],[7.2235,47.4262],[7.2194,47.4285],[7.19,47.4347],[7.1683,47.4436],[7.1626,47.4599],[7.1808,47.4883],[7.1537,47.4864],[7.1422,47.4877],[7.1403,47.4879],[7.1273,47.4929],[7.1037,47.4963],[7.0539,47.4904],[7.028,47.4929],[7.0189,47.4977],[7.0098,47.4992],[7.0008,47.4977],[6.9919,47.4929],[6.9733,47.4891],[6.9758,47.478],[6.9861,47.4641],[6.991,47.4522],[6.9834,47.4438],[6.9685,47.4352],[6.9523,47.4288],[6.9261,47.4249],[6.9245,47.406],[6.8988,47.3957],[6.884,47.3826],[6.8716,47.367],[6.8666,47.3542],[6.9856,47.3621],[7.004,47.3681],[7.0189,47.3599],[7.0339,47.3507],[7.0443,47.3405],[7.0366,47.3295],[7.0271,47.3254],[7.0169,47.3235],[7.0065,47.3194],[6.9919,47.306],[6.9865,47.3045],[6.9774,47.3037],[6.9586,47.2906],[6.9522,47.27],[6.9562,47.2452],[6.8883,47.2113],[6.8593,47.1909],[6.8403,47.1695],[6.8381,47.1681],[6.7748,47.1282],[6.7448,47.1211],[6.746,47.1039],[6.7317,47.0989],[6.7279,47.0971],[6.7242,47.0908],[6.6991,47.0846],[6.6897,47.0783],[6.6763,47.0624],[6.6883,47.0438],[6.6654,47.0213],[6.5987,46.9865],[6.4911,46.9634],[6.4426,46.9442],[6.4278,46.9091],[6.4319,46.9],[6.4452,46.8826],[6.4484,46.8716],[6.4468,46.8577],[6.4431,46.8515],[6.4412,46.8481],[6.4343,46.8395],[6.4186,46.807],[6.4171,46.8022],[6.4199,46.7965],[6.4252,46.7916],[6.4326,46.786],[6.433,46.7691],[6.4292,46.7608],[6.4179,46.7511],[6.4074,46.7457],[6.3742,46.7336],[6.3479,46.7132],[6.3379,46.7074],[6.2663,46.6804],[6.1319,46.5956],[6.1184,46.5835],[6.1215,46.5703],[6.1457,46.5516],[6.1104,46.5208],[6.0755,46.4796],[6.0642,46.4711],[6.0602,46.465],[6.0602,46.4599],[6.0624,46.4552],[6.0648,46.4511],[6.0655,46.448],[6.0655,46.4404],[6.0676,46.4336],[6.0657,46.427],[6.0542,46.4194],[6.059,46.4174],[6.1082,46.3965],[6.1229,46.3855],[6.1351,46.3704],[6.1364,46.3593],[6.1186,46.3318],[6.1041,46.3092],[6.1007,46.3014],[6.0936,46.2731],[6.0931,46.2623],[6.094,46.253],[6.0897,46.2464],[6.0677,46.2416],[6.0619,46.2412],[6.0559,46.2417],[6.048,46.2434],[6.0462,46.2435],[6.0445,46.2434],[6.0429,46.2431],[5.9829,46.2227],[5.9585,46.212],[5.9548,46.1999],[5.9652,46.1862],[5.9829,46.1708],[5.9798,46.1622],[5.9722,46.1522],[5.9588,46.1305],[5.9829,46.1404],[6.0283,46.1479],[6.0739,46.1492],[6.1079,46.1386],[6.1403,46.1502],[6.1914,46.1917],[6.2554,46.2211],[6.2812,46.2401],[6.276,46.2631],[6.269,46.2652],[6.2523,46.2599],[6.2418,46.2637],[6.2376,46.2679],[6.228,46.2845],[6.2275,46.2885],[6.2183,46.3055],[6.2141,46.3155],[6.2195,46.3291],[6.2406,46.349],[6.2691,46.375],[6.3016,46.3945],[6.3324,46.4014],[6.3652,46.4024],[6.3977,46.4082],[6.4829,46.4486],[6.547,46.4574],[6.6137,46.4559],[6.7627,46.4293],[6.7777,46.4241],[6.7871,46.4142],[6.7881,46.405],[6.7892,46.3952],[6.7821,46.3785],[6.7557,46.3571],[6.7504,46.3455],[6.7695,46.3227],[6.8049,46.2966],[6.8277,46.2695],[6.7922,46.2217],[6.7749,46.1859],[6.7657,46.1516],[6.7743,46.1348],[6.8539,46.1226],[6.8692,46.1123],[6.8682,46.1047],[6.8612,46.097],[6.8531,46.0902],[6.8486,46.085],[6.8513,46.086],[6.8531,46.0761],[6.8534,46.0657],[6.852,46.0647],[6.8524,46.0569],[6.8503,46.0527],[6.8509,46.0496],[6.8597,46.045],[6.8692,46.0441],[6.8769,46.0481],[6.884,46.0532],[6.8924,46.0556],[6.9151,46.0486],[6.9828,45.9954],[6.9877,45.9931],[6.9913,45.9825],[7.0028,45.9617],[7.0098,45.9434],[7.0152,45.9333],[7.0221,45.9253],[7.0669,45.8902],[7.0902,45.8805],[7.1209,45.8761],[7.1535,45.8765],[7.1837,45.8805],[7.2454,45.8981],[7.2735,45.9103],[7.2867,45.9134],[7.3618,45.9078],[7.3938,45.9157],[7.453,45.9459],[7.4827,45.9549],[7.5037,45.9567],[7.5147,45.9667],[7.5244,45.9781],[7.5411,45.9841],[7.643,45.9663],[7.6587,45.96],[7.6737,45.9503],[7.6925,45.9312],[7.694,45.9287],[7.7063,45.9257],[7.7147,45.9271],[7.7222,45.9296],[7.732,45.9304],[7.7801,45.9181],[7.8076,45.9185],[7.8254,45.9147],[7.8312,45.9145],[7.8437,45.9192],[7.8461,45.9226],[7.8453,45.9278],[7.8484,45.9381],[7.8496,45.9397],[7.8702,45.9404],[7.8729,45.9594],[7.8838,45.9739],[7.8982,45.9819],[7.9691,45.9931],[7.9787,45.9952],[7.9858,45.9993],[7.9984,46.0106],[7.9991,46.0128],[8.0088,46.0277],[8.0107,46.0297],[8.0159,46.0582],[8.016,46.0694],[8.0182,46.0809],[8.0253,46.0911],[8.0354,46.0965],[8.056,46.0981],[8.0669,46.1006],[8.1106,46.127],[8.1323,46.1594],[8.1295,46.196],[8.1,46.2356],[8.0766,46.2497],[8.0731,46.2536],[8.0773,46.262],[8.0873,46.2718],[8.1069,46.2855],[8.1285,46.2925],[8.1719,46.2992],[8.1926,46.3092],[8.2418,46.3541],[8.2701,46.364],[8.2815,46.3701],[8.2915,46.3784],[8.2975,46.3875],[8.297,46.3976],[8.2904,46.4011],[8.2866,46.4054],[8.295,46.418],[8.3163,46.4337],[8.3434,46.4439],[8.3859,46.4502],[8.3992,46.4522],[8.4279,46.4487],[8.4416,46.4349],[8.4458,46.4124],[8.4463,46.3822],[8.4429,46.3534],[8.4266,46.3016],[8.4232,46.2758],[8.4272,46.2514],[8.4381,46.2354],[8.4565,46.2248],[8.4827,46.2175],[8.5103,46.2079],[8.5387,46.1876],[8.6018,46.1228],[8.6115,46.1194],[8.6309,46.1147],[8.6775,46.0958],[8.6951,46.0952],[8.7022,46.098],[8.7177,46.1075],[8.7239,46.1095],[8.729,46.1082],[8.7322,46.1074],[8.7395,46.0981],[8.7471,46.0944],[8.7632,46.0929],[8.7939,46.0934],[8.809,46.0897],[8.8344,46.0664],[8.8196,46.0429],[8.791,46.0187],[8.7734,45.9906],[8.7696,45.9858],[8.7679,45.9831],[8.7851,45.9823],[8.8004,45.9785],[8.8577,45.9571],[8.8645,45.9534],[8.871,45.9471],[8.8808,45.9311],[8.8981,45.9096],[8.9065,45.8965],[8.9121,45.8834],[8.9138,45.8661],[8.9097,45.8537],[8.9037,45.8418],[8.9,45.8264],[8.9396,45.8348],[8.9724,45.8246],[9.0024,45.8207],[9.0344,45.8481],[9.0593,45.882],[9.0631,45.899],[9.0517,45.9155],[9.0423,45.9197],[9.0205,45.9228],[9.0108,45.9267],[9.0017,45.9361],[8.9934,45.9543],[8.9827,45.9618],[8.9805,45.9644],[8.9798,45.9669],[8.9805,45.9695],[8.9827,45.972],[9.0156,45.9931],[8.9978,46.0279],[9.0021,46.0393],[9.0277,46.0531],[9.0497,46.0579],[9.0592,46.0618],[9.0671,46.0711],[9.0703,46.0834],[9.0682,46.106],[9.0721,46.1189],[9.0906,46.1382],[9.1632,46.1723],[9.1638,46.173],[9.1711,46.1826],[9.1758,46.1941],[9.1813,46.2041],[9.1922,46.2096],[9.2042,46.2136],[9.2157,46.2211],[9.2248,46.2312],[9.2397,46.267],[9.269,46.3094],[9.2752,46.3314],[9.2738,46.3443],[9.2604,46.3797],[9.2603,46.394],[9.2629,46.4066],[9.2609,46.4167],[9.2476,46.423],[9.238,46.4365],[9.2458,46.461],[9.2632,46.4851],[9.2823,46.4974],[9.331,46.5015],[9.3508,46.4979],[9.3516,46.4855],[9.3771,46.4687],[9.3846,46.4664],[9.3955,46.4694],[9.4003,46.4754],[9.4038,46.4825],[9.4107,46.4889],[9.4268,46.4971],[9.4346,46.4983],[9.4379,46.492],[9.4438,46.3961],[9.4424,46.3809],[9.4444,46.3753],[9.4516,46.3704],[9.4737,46.3619],[9.4826,46.3568],[9.5026,46.3207],[9.5153,46.3086],[9.5365,46.2986],[9.5597,46.2927],[9.6743,46.2918],[9.6931,46.2971],[9.7084,46.3117],[9.7088,46.3196],[9.7073,46.331],[9.7093,46.3424],[9.7201,46.3509],[9.7309,46.3507],[9.7552,46.3405],[9.7681,46.3386],[9.7888,46.3433],[9.8554,46.367],[9.899,46.3722],[9.9184,46.3712],[9.939,46.3675],[9.964,46.3561],[9.9706,46.3398],[9.9711,46.32],[9.9776,46.2981],[9.9922,46.2844],[10.0317,46.2601],[10.0418,46.2431],[10.0427,46.2205],[10.0757,46.22],[10.1179,46.2311],[10.1458,46.2433],[10.1589,46.2624],[10.1461,46.2803],[10.1049,46.3094],[10.0958,46.3205],[10.0918,46.329],[10.0924,46.3381],[10.0975,46.3516],[10.105,46.3614],[10.126,46.3744],[10.1332,46.3811],[10.1408,46.4029],[10.1334,46.414],[10.1162,46.4188],[10.0714,46.4248],[10.0421,46.4327],[10.0263,46.4463],[10.044,46.467],[10.0353,46.4711],[10.0305,46.4767],[10.0281,46.4839],[10.0269,46.4932],[10.0312,46.5038],[10.0314,46.5258],[10.0328,46.533],[10.0413,46.5419],[10.0629,46.5567],[10.0712,46.5644],[10.0835,46.597],[10.0878,46.6044],[10.0975,46.608],[10.1921,46.6268],[10.2179,46.627],[10.2338,46.618],[10.2357,46.6067],[10.2303,46.5862],[10.2347,46.5753],[10.2759,46.5655],[10.2838,46.5607],[10.2891,46.5557],[10.2954,46.5511],[10.3066,46.5475],[10.3195,46.546],[10.3543,46.5483],[10.4259,46.5353],[10.444,46.5377],[10.4518,46.5467],[10.4579,46.5537],[10.4659,46.5785],[10.4666,46.6043],[10.4591,46.6236],[10.4382,46.6357],[10.3956,46.6388],[10.3775,46.6533],[10.3692,46.6724],[10.3739,46.6819],[10.3848,46.689],[10.3944,46.7008],[10.3966,46.715],[10.3956,46.7264],[10.3997,46.7355],[10.4166,46.743],[10.4287,46.7556],[10.4262,46.7694],[10.4191,46.784],[10.4172,46.7989],[10.439,46.8169],[10.4449,46.8232],[10.4485,46.8322],[10.4538,46.8644],[10.4863,46.8464],[10.5277,46.8432],[10.6294,46.8624],[10.6471,46.8638],[10.6625,46.861],[10.739,46.8295],[10.7487,46.8194],[10.7438,46.8125],[10.7216,46.8001],[10.7169,46.7952],[10.7229,46.7864],[10.7337,46.7862],[10.7548,46.7908],[10.7663,46.7881],[10.7951,46.7769],[10.8049,46.7766],[10.8239,46.7804],[10.8342,46.7802],[10.8431,46.777],[10.8602,46.767],[10.8704,46.7641],[10.8803,46.7646],[10.9137,46.7723],[10.9309,46.774],[10.9657,46.7716],[10.9827,46.7677],[10.9969,46.7691],[11.0109,46.7792],[11.0333,46.8056],[11.0374,46.8083],[11.0485,46.8117],[11.0528,46.8149],[11.0546,46.8199],[11.0535,46.8303],[11.0543,46.8341],[11.0731,46.865],[11.0836,46.9001],[11.0919,46.9124],[11.1566,46.9565],[11.1745,46.9639],[11.2437,46.9793],[11.3138,46.9873],[11.3495,46.9819],[11.3806,46.9716],[11.4112,46.9705],[11.4452,46.993],[11.4453,46.9931],[11.4529,47.0009],[11.4618,47.0055],[11.4718,47.0071],[11.4894,47.0042],[11.4959,47.0016],[11.5017,46.9979],[11.507,46.993],[11.5153,46.9895],[11.5244,46.9883],[11.5338,46.9895],[11.5433,46.993],[11.5434,46.993],[11.5436,46.9931],[11.5437,46.9931],[11.5727,46.9989],[11.5965,47.0004],[11.648,46.9933],[11.6485,46.9933],[11.6497,46.993],[11.6573,46.9925],[11.6648,46.9933],[11.6838,46.9919],[11.7162,46.9755],[11.7349,46.9706],[11.7464,46.9725],[11.7661,46.9834],[11.7771,46.9883],[11.8225,46.9933],[11.857,47.012],[11.8995,47.0277],[11.9436,47.0382],[12.015,47.0405],[12.1162,47.0766],[12.1331,47.0788],[12.1806,47.0852],[12.2042,47.0797],[12.2039,47.067],[12.2036,47.0533],[12.1823,47.0336],[12.1217,47.0105],[12.1112,46.993],[12.1178,46.9831],[12.1221,46.9717],[12.1282,46.9486],[12.1347,46.9374],[12.1417,46.928],[12.1416,46.9188],[12.1269,46.9089],[12.1374,46.9059],[12.161,46.903],[12.1722,46.8992],[12.1835,46.8912],[12.189,46.8849],[12.1951,46.8801],[12.2087,46.8766],[12.2508,46.8756],[12.2666,46.8681],[12.2758,46.8463],[12.2761,46.834],[12.2733,46.8268],[12.2696,46.8198],[12.2669,46.8083],[12.2667,46.7953],[12.2691,46.7886],[12.2748,46.7846],[12.2844,46.78],[12.3053,46.7745],[12.326,46.7725],[12.3427,46.7651],[12.3515,46.7432],[12.3704,46.7112],[12.405,46.6901],[12.4456,46.6787],[12.4696,46.6758],[12.4999,46.6721],[12.5308,46.6577],[12.5473,46.6522],[12.562,46.6512],[12.6202,46.6565],[12.6696,46.653],[12.6714,46.6525],[12.6792,46.65],[12.6974,46.6405],[12.7066,46.6377],[12.716,46.638],[12.732,46.6423],[12.7399,46.643],[12.7485,46.641],[12.7736,46.6352],[12.8304,46.6096],[13.0645,46.598],[13.1465,46.585],[13.21,46.558],[13.2311,46.5522],[13.2714,46.5508],[13.3733,46.5658],[13.417,46.5605],[13.478,46.5636],[13.4849,46.5617],[13.4991,46.5506],[13.5068,46.5469],[13.5492,46.5458],[13.6703,46.5187],[13.6853,46.5176],[13.701,46.5197],[13.7161,46.5189],[13.7821,46.5078],[13.7958,46.5079],[13.8607,46.5153],[13.8909,46.5118],[13.9823,46.4819],[13.9988,46.4805],[14.0149,46.4825],[14.0325,46.4847],[14.05,46.4844],[14.0664,46.481],[14.081,46.476],[14.1373,46.4424],[14.1479,46.4404],[14.1499,46.4401],[14.2423,46.4382],[14.3622,46.4359],[14.3958,46.441],[14.4065,46.4393],[14.4112,46.4346],[14.4144,46.429],[14.42,46.4244],[14.4371,46.4189],[14.4509,46.4145],[14.4677,46.4127],[14.5022,46.4184],[14.5158,46.4054],[14.5271,46.3882],[14.5403,46.3786],[14.5577,46.3839],[14.5621,46.3917],[14.567,46.4004],[14.5754,46.4197],[14.5901,46.4344],[14.5999,46.4372],[14.6216,46.4385],[14.6317,46.4406],[14.642,46.4452],[14.6621,46.4597],[14.6666,46.4605],[14.6725,46.4598],[14.68,46.4589],[14.6871,46.4712],[14.6988,46.481],[14.7037,46.4878],[14.7097,46.4925],[14.7264,46.4977],[14.7353,46.4933],[14.7609,46.4963],[14.783,46.5033],[14.7886,46.5066],[14.7967,46.5194],[14.8072,46.536],[14.8145,46.5513],[14.8223,46.5675],[14.8336,46.5844],[14.8504,46.6011],[14.863,46.6048],[14.8771,46.6036],[14.8941,46.6052],[14.8977,46.6056],[14.9195,46.615],[14.9336,46.6211],[14.948,46.6193],[14.9672,46.6003],[15.0044,46.6368],[15.062,46.6496],[15.0857,46.6478],[15.1056,46.6463],[15.1726,46.6414],[15.2049,46.639],[15.3328,46.6436],[15.3881,46.6456],[15.4176,46.638],[15.4354,46.6272],[15.44,46.6244],[15.4627,46.6146],[15.4926,46.6183],[15.5112,46.6284],[15.5139,46.6325],[15.5176,46.6382],[15.5203,46.6477],[15.5208,46.6496],[15.5307,46.6638],[15.546,46.6719],[15.5673,46.6758],[15.5886,46.676],[15.6037,46.673],[15.6166,46.6756],[15.6217,46.6782],[15.627,46.6809],[15.633,46.6896],[15.6329,46.7025],[15.636,46.7176],[15.6521,46.7108],[15.7287,46.703],[15.7551,46.704],[15.7846,46.7122],[15.8229,46.7228],[15.8507,46.7245],[15.8785,46.7207],[15.9463,46.6972],[15.987,46.6922],[15.9979,46.6869],[16.0166,46.6708],[16.0167,46.6707],[16.0146,46.6937],[16.0033,46.7092],[15.982,46.7185],[15.9705,46.743],[15.9697,46.7605],[15.971,46.7751],[15.9713,46.7781],[15.9782,46.8091],[15.9774,46.8162],[15.9729,46.8184],[15.972,46.8206],[15.9817,46.8277],[15.9876,46.83],[16.0284,46.8369],[16.032,46.8376],[16.0529,46.8461],[16.094,46.8628],[16.1101,46.8679],[16.1229,46.8764],[16.1591,46.9103],[16.1707,46.9185],[16.1961,46.9313],[16.217,46.9374],[16.2239,46.9411],[16.2307,46.9484],[16.2312,46.9544],[16.2304,46.96],[16.2329,46.9661],[16.2431,46.972],[16.253,46.9735],[16.2611,46.9781],[16.2654,46.9933],[16.2749,47.0043],[16.2885,47.0056],[16.3259,47.0004],[16.3666,47.0038],[16.3878,47.002],[16.405,46.9932],[16.4104,46.9904],[16.4156,46.9894],[16.4204,46.9903],[16.4248,46.993],[16.4248,46.9931],[16.4414,46.9952],[16.4674,46.9954],[16.4864,46.9986],[16.4819,47.0094],[16.4676,47.0184],[16.4533,47.0217],[16.4247,47.0241],[16.4372,47.0318],[16.4819,47.0442],[16.4932,47.0491],[16.4972,47.0546],[16.4937,47.0598],[16.4819,47.0639],[16.4618,47.0685],[16.4543,47.0817],[16.4608,47.0963],[16.4819,47.1052],[16.5048,47.1258],[16.5095,47.1375],[16.4973,47.1497],[16.4809,47.1508],[16.4471,47.1397],[16.4337,47.1458],[16.434,47.1513],[16.4421,47.1683],[16.4418,47.1771],[16.4351,47.1836],[16.4267,47.1841],[16.4188,47.1837],[16.4128,47.1872],[16.4093,47.2037],[16.4247,47.2256],[16.4214,47.243],[16.4214,47.2431],[16.4525,47.2546],[16.4666,47.2634],[16.4732,47.2768],[16.4692,47.2932],[16.4388,47.3366],[16.4361,47.3386],[16.4317,47.3397],[16.4271,47.3414],[16.4244,47.3452],[16.425,47.3511],[16.4293,47.3538],[16.4343,47.3556],[16.4364,47.3585],[16.434,47.3969],[16.4441,47.4095],[16.4566,47.4118],[16.4699,47.4055],[16.4819,47.3923],[16.5894,47.4256],[16.627,47.4455],[16.6409,47.4529],[16.6368,47.4932],[16.6482,47.5015],[16.6774,47.5099],[16.688,47.5226],[16.6891,47.538],[16.6814,47.5506],[16.6675,47.5601],[16.6506,47.5666],[16.6562,47.5859],[16.6477,47.6061],[16.6302,47.622],[16.6084,47.6288],[16.5755,47.6249],[16.5096,47.6431],[16.4819,47.639],[16.4259,47.6543],[16.4078,47.6613],[16.4166,47.6688],[16.4318,47.6855],[16.4391,47.6905],[16.4449,47.6855],[16.4499,47.6824],[16.4545,47.6818],[16.4611,47.6845],[16.473,47.6918],[16.5129,47.706],[16.5214,47.7115],[16.5269,47.7201],[16.5251,47.7333],[16.5311,47.743],[16.5678,47.7542],[16.6098,47.7506],[16.6899,47.7296],[16.7025,47.7236],[16.7078,47.7146],[16.7116,47.7041],[16.7192,47.6937],[16.7304,47.6859],[16.7411,47.6815],[16.7975,47.6755],[16.8062,47.6769],[16.8173,47.6842],[16.8369,47.7054],[16.8502,47.7129],[16.8647,47.6867],[16.9027,47.682],[16.9819,47.6954],[17.0548,47.702],[17.0754,47.7085],[17.064,47.7133],[17.0555,47.7209],[17.0506,47.731],[17.0487,47.7636],[17.042,47.7839],[17.0406,47.8011],[17.0556,47.8124],[17.0491,47.8187],[17.0395,47.8374],[17.0317,47.8413],[17.0107,47.8479],[17.0044,47.8524],[17.0041,47.8633],[17.0166,47.8677],[17.0512,47.8729],[17.0676,47.8816],[17.0775,47.8917],[17.0833,47.9048],[17.0875,47.9226],[17.0854,47.9246],[17.0801,47.9258],[17.0752,47.9278],[17.0741,47.9321],[17.0768,47.935],[17.0861,47.9392],[17.0881,47.9409],[17.0909,47.9495],[17.0957,47.9557],[17.0961,47.9619],[17.0856,47.9701],[17.1483,48.0054],[17.125,48.0195],[17.0926,48.0273],[17.0697,48.0357],[17.0751,48.0521],[17.0631,48.0588],[17.0591,48.0604],[17.0648,48.079],[17.07,48.0892],[17.0802,48.0976],[17.0672,48.1069],[17.0625,48.1127],[17.0475,48.131],[17.0369,48.1355],[17.0209,48.1372],[17.0072,48.1428],[16.9819,48.1613],[16.9748,48.1769],[16.9747,48.1986],[16.97,48.2166],[16.9543,48.2526],[16.9539,48.2573],[16.9553,48.2688],[16.9543,48.2731],[16.9506,48.2766],[16.9444,48.278],[16.9334,48.2847],[16.9243,48.2875],[16.9166,48.2908],[16.9133,48.2967],[16.9121,48.3012],[16.9089,48.307],[16.9055,48.312],[16.9028,48.3141],[16.8984,48.3162],[16.9003,48.3212],[16.9042,48.327],[16.9065,48.3315],[16.9019,48.3394],[16.8917,48.347],[16.8812,48.3528],[16.8755,48.355],[16.8553,48.3565],[16.8476,48.3596],[16.8445,48.3656],[16.8451,48.3766],[16.8469,48.3811],[16.8493,48.3841],[16.8519,48.3904],[16.8608,48.4438],[16.8649,48.4581],[16.8751,48.4715],[16.9012,48.4966],[16.9065,48.5099],[16.9139,48.5193],[16.9305,48.5282],[16.9469,48.5397],[16.9491,48.5448],[16.9543,48.5574],[16.945,48.6042],[16.9105,48.6308],[16.8967,48.697],[16.873,48.719],[16.8566,48.7198],[16.8181,48.7108],[16.7989,48.7092],[16.7805,48.7138],[16.7443,48.7296],[16.729,48.7331],[16.691,48.7321],[16.6751,48.7339],[16.662,48.74],[16.6547,48.7519],[16.651,48.7662],[16.6431,48.7783],[16.624,48.7834],[16.6055,48.7848],[16.5458,48.7963],[16.5287,48.8035],[16.5195,48.8056],[16.5103,48.8048],[16.4923,48.7997],[16.4819,48.7994],[16.4531,48.8022],[16.4357,48.7945],[16.385,48.7371],[16.374,48.7303],[16.3583,48.7273],[16.3527,48.7284],[16.3395,48.7356],[16.3187,48.7335],[16.3176,48.7328],[16.1778,48.7465],[16.0854,48.7429],[16.0323,48.7581],[15.9318,48.8064],[15.9303,48.8114],[15.9303,48.8183],[15.9251,48.8226],[15.9081,48.8197],[15.9071,48.8303],[15.8996,48.8347],[15.8884,48.8351],[15.8758,48.8331],[15.886,48.842],[15.8776,48.8417],[15.8702,48.8439],[15.8592,48.8492],[15.8401,48.8501],[15.8333,48.852],[15.8283,48.8571],[15.8243,48.8694],[15.8185,48.8723],[15.7879,48.8723],[15.7792,48.8709],[15.7437,48.8585],[15.7268,48.855],[15.7038,48.855],[15.6813,48.8585],[15.6037,48.8874],[15.5442,48.9026],[15.5213,48.9085],[15.4719,48.9367],[15.4504,48.9448],[15.4059,48.9547],[15.3579,48.9708],[15.3355,48.975],[15.2887,48.9754],[15.2837,48.9776],[15.2796,48.9826],[15.2746,48.9867],[15.2669,48.9867],[15.2629,48.9826],[15.2604,48.9692],[15.2571,48.9639],[15.2432,48.9529],[15.2381,48.9508],[15.1618,48.9372],[15.1419,48.9375],[15.1486,48.9517],[15.149,48.9653],[15.1447,48.9789],[15.1374,48.993],[15.0596,48.9972],[15.004,49.0098],[14.9821,49.0079],[14.9789,49.0063],[14.9773,49.0029],[14.9773,48.9983],[14.9782,48.9928],[14.9646,48.9717],[14.9642,48.9433],[14.9683,48.9127],[14.9682,48.885],[14.947,48.8224],[14.9398,48.8098],[14.9381,48.8028],[14.9401,48.7965],[14.9444,48.7886],[14.9489,48.7821],[14.9511,48.7803],[14.9396,48.7628],[14.9193,48.7616],[14.8677,48.7756],[14.8155,48.7803],[14.8004,48.7765],[14.7945,48.767],[14.7904,48.7549],[14.7804,48.7431],[14.7754,48.724],[14.7227,48.6934],[14.7038,48.6731],[14.7002,48.6461],[14.7007,48.6155],[14.6957,48.5895],[14.6911,48.5865],[14.6756,48.5762],[14.6592,48.577],[14.6513,48.5835],[14.6454,48.5929],[14.6347,48.6023],[14.6282,48.6033],[14.6129,48.5997],[14.6051,48.6003],[14.6019,48.6045],[14.6018,48.6112],[14.6006,48.6176],[14.5942,48.6213],[14.5788,48.6205],[14.5488,48.6109],[14.5338,48.6087],[14.522,48.6106],[14.4821,48.6245],[14.4582,48.6432],[14.4436,48.6365],[14.4212,48.5971],[14.4054,48.5863],[14.3534,48.5714],[14.3332,48.5607],[14.3254,48.5586],[14.3157,48.5579],[14.2165,48.5812],[14.0748,48.5917],[14.0408,48.6012],[14.0325,48.6061],[14.0152,48.6204],[14.0109,48.6259],[14.0062,48.6395],[14.0081,48.6424],[14.0137,48.6438],[14.0205,48.6532],[14.0235,48.6546],[14.0283,48.654],[14.0329,48.6549],[14.0347,48.6612],[14.0321,48.6673],[14.0262,48.6701],[14.0192,48.6719],[14.0142,48.6751],[14.0078,48.6833],[13.9911,48.7002],[13.9823,48.7065],[13.915,48.731],[13.8931,48.743],[13.8749,48.7524],[13.8559,48.7593],[13.8361,48.7628],[13.8393,48.7707],[13.8132,48.774],[13.8039,48.7811],[13.8153,48.7969],[13.7957,48.815],[13.7902,48.831],[13.7739,48.8306],[13.7501,48.8583],[13.7437,48.8757],[13.7273,48.883],[13.7161,48.8782],[13.7026,48.8817],[13.6891,48.8784],[13.6716,48.8801],[13.6696,48.8903],[13.6552,48.8935],[13.638,48.9257],[13.6223,48.939],[13.6055,48.9417],[13.5907,48.9528],[13.5855,48.9685],[13.5633,48.9705],[13.5435,48.9683],[13.5292,48.9741],[13.5071,48.9691],[13.5083,48.9422],[13.4956,48.9413],[13.4836,48.9513],[13.4694,48.9544],[13.4602,48.9622],[13.4431,48.9658],[13.4167,48.98],[13.4029,48.9873],[13.4093,49.0031],[13.4003,49.0162],[13.4031,49.0265],[13.3923,49.0543],[13.3759,49.0584],[13.344,49.0889],[13.3278,49.0962],[13.2892,49.1186],[13.2764,49.1205],[13.2364,49.1136],[13.2057,49.1221],[13.1703,49.144],[13.1769,49.1642],[13.1709,49.1736],[13.1619,49.1746],[13.1293,49.1969],[13.11,49.2032],[13.1131,49.2192],[13.086,49.2294],[13.0808,49.2474],[13.0578,49.2532],[13.05,49.2649],[13.0339,49.2639],[13.0257,49.2789],[13.0306,49.2876],[13.0291,49.3043],[13.0106,49.3053],[12.9726,49.3339],[12.95,49.3429],[12.9199,49.3434],[12.9066,49.3485],[12.8802,49.3505],[12.8889,49.333],[12.8768,49.3324],[12.8479,49.3443],[12.837,49.3407],[12.8025,49.3416],[12.7788,49.3481],[12.7823,49.3592],[12.7581,49.3752],[12.7576,49.3948],[12.7329,49.4099],[12.7147,49.414],[12.7087,49.4247],[12.6792,49.4263],[12.6559,49.4345],[12.658,49.4505],[12.6485,49.4683],[12.6338,49.4762],[12.6439,49.4844],[12.6399,49.499],[12.6443,49.523],[12.6017,49.5325],[12.5938,49.5422],[12.5742,49.5594],[12.5713,49.5685],[12.5771,49.5863],[12.5642,49.5962],[12.5637,49.6059],[12.546,49.6213],[12.5282,49.6182],[12.5179,49.6435],[12.5298,49.6662],[12.5216,49.6868],[12.4852,49.6879],[12.4809,49.695],[12.4403,49.7058],[12.4257,49.7305],[12.4064,49.7395],[12.4015,49.7584],[12.4032,49.7619],[12.467,49.7854],[12.4733,49.8151],[12.4729,49.8336],[12.4826,49.8417],[12.498,49.8376],[12.4978,49.8569],[12.5107,49.8584],[12.5219,49.8817],[12.54,49.8912],[12.5506,49.9026],[12.5477,49.9203],[12.5385,49.9248],[12.5122,49.9276],[12.4784,49.9357],[12.4705,49.949],[12.4906,49.9586],[12.4939,49.9698],[12.4899,49.9818],[12.4765,49.9808],[12.4607,49.9949],[12.4352,49.9938],[12.4244,50.0008],[12.3674,50.0194],[12.3376,50.0399],[12.3289,50.0322],[12.3192,50.0488],[12.2991,50.0587],[12.2832,50.0564],[12.2609,50.0584],[12.2666,50.0784],[12.2462,50.0923],[12.2311,50.0944],[12.2295,50.1017],[12.209,50.1024],[12.1996,50.1117],[12.1945,50.1377],[12.2112,50.1588],[12.2013,50.1888],[12.1902,50.2008],[12.1619,50.2118],[12.1607,50.2198],[12.1585,50.2265],[12.1089,50.2379],[12.0991,50.2624],[12.1384,50.2753],[12.1196,50.2994],[12.126,50.3072],[12.1009,50.318],[12.1254,50.3154],[12.1509,50.3221],[12.1845,50.3223],[12.1868,50.3117],[12.1983,50.3074],[12.1956,50.2932],[12.2016,50.2894],[12.2015,50.2728],[12.2132,50.2702],[12.2537,50.2711],[12.2653,50.2582],[12.251,50.256],[12.2393,50.2472],[12.2669,50.2319],[12.2746,50.2333],[12.2939,50.2213],[12.2837,50.2148],[12.2875,50.2029],[12.2748,50.197],[12.2893,50.1861],[12.2949,50.1747],[12.3192,50.1719],[12.3382,50.1925],[12.326,50.2019],[12.3268,50.2181],[12.3324,50.2385],[12.3478,50.2379],[12.3588,50.2437],[12.3501,50.2535],[12.3595,50.2735],[12.3709,50.2853],[12.3943,50.2896],[12.403,50.3007],[12.398,50.3212],[12.4371,50.3276],[12.4418,50.3412],[12.4694,50.355],[12.4816,50.347],[12.4922,50.3546],[12.4864,50.3698],[12.5125,50.3962],[12.5584,50.3994],[12.5838,50.4071],[12.6029,50.4065],[12.617,50.4156],[12.6455,50.4108],[12.6731,50.4169],[12.7071,50.3973],[12.7076,50.4078],[12.7298,50.4217],[12.7346,50.4322],[12.7949,50.4494],[12.7998,50.4426],[12.8171,50.4501],[12.8201,50.4598],[12.9412,50.4107],[12.9858,50.421],[12.9954,50.4333],[13.0166,50.4439],[13.0239,50.4541],[13.0188,50.4668],[13.0234,50.4883],[13.0428,50.5114],[13.056,50.5013],[13.0766,50.5001],[13.1015,50.5029],[13.1327,50.5183],[13.1367,50.5064],[13.1534,50.5085],[13.1781,50.5029],[13.1969,50.5046],[13.1959,50.5165],[13.228,50.5485],[13.2259,50.5662],[13.2336,50.5791],[13.2477,50.591],[13.2788,50.593],[13.2909,50.575],[13.3229,50.5813],[13.3196,50.6016],[13.342,50.6126],[13.3674,50.6188],[13.3774,50.6273],[13.3722,50.6489],[13.4025,50.635],[13.4122,50.6194],[13.4305,50.6104],[13.4411,50.6111],[13.4611,50.6036],[13.4927,50.6235],[13.5018,50.6336],[13.5242,50.6393],[13.514,50.6558],[13.5444,50.6774],[13.5391,50.6914],[13.5252,50.7044],[13.5599,50.7147],[13.6023,50.7101],[13.6269,50.7159],[13.6247,50.7218],[13.6522,50.7304],[13.6666,50.7319],[13.6874,50.7199],[13.7079,50.7171],[13.7282,50.7337],[13.7404,50.7272],[13.7583,50.7358],[13.7713,50.733],[13.8094,50.7324],[13.8271,50.7242],[13.8575,50.7282],[13.8682,50.7426],[13.878,50.7382],[13.8969,50.7433],[13.9006,50.7518],[13.8876,50.7711],[13.904,50.794],[13.9184,50.7891],[13.9392,50.79],[13.9558,50.8006],[13.9538,50.8073],[13.9908,50.8199],[14.0347,50.805],[14.0411,50.8108],[14.0784,50.8124],[14.0906,50.8262],[14.1329,50.834],[14.1615,50.8475],[14.2039,50.8522],[14.2233,50.8592],[14.2352,50.8743],[14.2363,50.8826],[14.2675,50.8953],[14.2891,50.8862],[14.3059,50.8843],[14.3482,50.8926],[14.3496,50.8992],[14.3741,50.8962],[14.3876,50.8991],[14.3866,50.915],[14.4018,50.9237],[14.401,50.9333],[14.3882,50.9415],[14.3746,50.9382],[14.3474,50.948],[14.3117,50.9538],[14.3169,50.9607],[14.313,50.9723],[14.327,50.9724],[14.3297,50.9822],[14.3114,50.9847],[14.2822,50.9777],[14.2629,50.9854],[14.2585,50.9921],[14.2652,51.0082],[14.2777,51.0188],[14.2894,51.0397],[14.3019,51.055],[14.3179,51.0547],[14.335,51.0397],[14.362,51.0454],[14.3826,51.0386],[14.3832,51.0285],[14.4084,51.0188],[14.4218,51.0196],[14.4538,51.0359],[14.4655,51.0353],[14.4744,51.0255],[14.4927,51.0234],[14.4912,51.0435],[14.5082,51.0419],[14.4986,51.0221],[14.5253,51.0185],[14.5399,51.0104],[14.5787,51.0003],[14.5813,50.9935],[14.5992,50.9871],[14.5961,50.9628],[14.5807,50.9419],[14.5607,50.9254],[14.5648,50.9184],[14.5832,50.9143],[14.6171,50.9255],[14.6502,50.9315],[14.6529,50.9055],[14.6362,50.8974],[14.6319,50.8833],[14.6187,50.8646],[14.6189,50.8577],[14.6483,50.8487],[14.6648,50.8494],[14.6902,50.838],[14.7087,50.8409],[14.7267,50.8225],[14.7388,50.8288],[14.7664,50.8193],[14.8,50.8228],[14.8102,50.8508],[14.8251,50.8693],[14.8196,50.8851],[14.8434,50.9007],[14.8527,50.9111],[14.8672,50.9172],[14.8753,50.9308],[14.8966,50.9406],[14.8931,50.9501],[14.904,50.9675],[14.9181,50.9742],[14.9203,50.9879],[14.9349,51.0062],[14.9391,51.0235],[14.9472,51.028],[14.9483,51.0402],[14.9647,51.0504],[14.9679,51.0714],[14.9839,51.0974],[14.9785,51.1068],[14.9835,51.1179],[14.9965,51.1209],[14.991,51.1413],[15.0007,51.1495],[14.9937,51.1631],[15.0088,51.1823],[15.0137,51.1954],[15.0076,51.2045],[15.0183,51.2211],[15.0166,51.228],[15.0374,51.244],[15.0295,51.2514],[15.0382,51.2592],[15.0335,51.2939],[15.013,51.3008],[15.0096,51.315],[14.9931,51.323],[14.9778,51.3417],[14.9742,51.364],[14.9836,51.3741],[14.9649,51.3861],[14.9635,51.4073],[14.9663,51.4262],[14.9738,51.4423],[14.9559,51.4585],[14.947,51.4721],[14.9274,51.4731],[14.9224,51.4823],[14.8978,51.4821],[14.8884,51.4875],[14.8716,51.4847],[14.8528,51.4893],[14.7968,51.5175],[14.7665,51.5189],[14.7358,51.526],[14.7266,51.5402],[14.7293,51.5497],[14.7112,51.5627],[14.7299,51.5818],[14.7421,51.593],[14.762,51.6034],[14.7656,51.6117],[14.7541,51.6268],[14.7577,51.6602],[14.736,51.6888],[14.7245,51.6905],[14.6909,51.7083],[14.6761,51.7236],[14.6681,51.7258],[14.6566,51.7405],[14.6636,51.756],[14.6508,51.7613],[14.6551,51.7736],[14.6463,51.7943],[14.6347,51.8006],[14.6082,51.8035],[14.591,51.8199],[14.5906,51.8387],[14.6059,51.8426],[14.6116,51.8574],[14.623,51.8578],[14.6526,51.8744],[14.6557,51.8847],[14.6734,51.8895],[14.6945,51.9025],[14.6913,51.9081],[14.7054,51.9242],[14.7034,51.9308],[14.7196,51.9429],[14.7208,51.953],[14.7072,51.9657],[14.7213,51.9962],[14.7167,52.0012],[14.7267,52.0139],[14.7408,52.0228],[14.7497,52.0411],[14.7452,52.0538],[14.7584,52.0674],[14.7413,52.0852],[14.7243,52.0935],[14.7003,52.0981],[14.6858,52.1094],[14.6791,52.142],[14.7031,52.1643],[14.7053,52.1735],[14.6881,52.1893],[14.6885,52.1989],[14.705,52.208],[14.7117,52.2192],[14.7145,52.237],[14.6902,52.2566],[14.6465,52.2626],[14.6171,52.2715],[14.6009,52.2721],[14.576,52.2884],[14.5852,52.3051],[14.5746,52.3228],[14.5609,52.3307],[14.5631,52.3381],[14.5536,52.3499],[14.5509,52.3765],[14.5344,52.395],[14.5457,52.4111],[14.5455,52.4287],[14.5551,52.4374],[14.5778,52.441],[14.6101,52.4652],[14.6118,52.4744],[14.6316,52.4884],[14.6317,52.5018],[14.616,52.5081],[14.605,52.5276],[14.6185,52.5569],[14.6394,52.5689],[14.638,52.5744],[14.6137,52.5866],[14.6082,52.5996],[14.5962,52.6107],[14.572,52.6218],[14.5053,52.6434],[14.4711,52.6578],[14.4529,52.6772],[14.4313,52.6829],[14.424,52.6962],[14.3837,52.7256],[14.3735,52.7367],[14.3609,52.7406],[14.3525,52.7507],[14.3217,52.7626],[14.2804,52.7737],[14.2301,52.805],[14.2175,52.8169],[14.1524,52.8242],[14.1301,52.8283],[14.123,52.844],[14.1298,52.8527],[14.1587,52.8761],[14.1566,52.8956],[14.1426,52.9332],[14.1388,52.9518],[14.1437,52.9614],[14.1622,52.9653],[14.1679,52.9727],[14.2094,52.9882],[14.2356,52.9932],[14.2916,53.02],[14.3123,53.0355],[14.338,53.0466],[14.3524,53.0589],[14.3662,53.0794],[14.3702,53.1046],[14.3783,53.1116],[14.3832,53.137],[14.3877,53.143],[14.3737,53.1543],[14.3663,53.172],[14.3773,53.2017],[14.4059,53.2108],[14.4085,53.2232],[14.4337,53.2421],[14.4496,53.2594],[14.4443,53.2724],[14.4212,53.2761],[14.415,53.3019],[14.4068,53.3087],[14.4155,53.3243],[14.4124,53.3296],[14.4055,53.3471],[14.3903,53.3537],[14.3953,53.3694],[14.3892,53.3878],[14.3733,53.409],[14.3686,53.4326],[14.3713,53.4564],[14.358,53.4573],[14.3506,53.496],[14.3269,53.5038],[14.3157,53.5251],[14.3159,53.5369],[14.3026,53.5534],[14.314,53.5652],[14.3118,53.5794],[14.3169,53.6181],[14.2838,53.6344],[14.2846,53.6588],[14.2709,53.6669],[14.2837,53.6825],[14.2677,53.6975],[14.2454,53.6937],[14.2224,53.6982],[14.2216,53.7101],[14.2512,53.7195],[14.2717,53.7393],[14.2599,53.7537],[14.2297,53.7612],[14.2096,53.7473],[14.179,53.7351],[14.1672,53.7419],[14.1458,53.7418],[14.1244,53.7372],[14.1017,53.74],[14.0762,53.7471],[14.0598,53.7553],[14.0494,53.7528],[14.0052,53.7671],[13.9684,53.7731],[13.9664,53.7763],[13.9222,53.7977],[13.914,53.806],[13.9016,53.8024],[13.8823,53.818],[13.8723,53.8312],[13.8489,53.8433],[13.8258,53.8438],[13.8099,53.8582],[13.8247,53.8647],[13.8249,53.8772],[13.8472,53.878],[13.8566,53.8944],[13.8825,53.9086],[13.9004,53.9099],[13.9141,53.9219],[13.8937,53.943],[13.8813,53.9498],[13.852,53.9537],[13.8538,53.9646],[13.8351,53.9835],[13.8081,53.9957],[13.7969,53.9953],[13.76,54.0159],[13.7614,54.0357],[13.7854,54.0509],[13.7743,54.0603],[13.7906,54.065],[13.7953,54.0891],[13.804,54.0971],[13.7917,54.1074],[13.7751,54.11],[13.7531,54.1224],[13.7481,54.1398],[13.734,54.1359],[13.7187,54.1446],[13.6974,54.1489],[13.6962,54.1582],[13.7181,54.164],[13.6967,54.1719],[13.6493,54.153],[13.6279,54.1409],[13.5751,54.1317],[13.5296,54.1311],[13.4926,54.1252],[13.4777,54.1192],[13.4865,54.1012],[13.5001,54.0902],[13.4894,54.0838],[13.4647,54.088],[13.4403,54.1109],[13.4401,54.1228],[13.426,54.1395],[13.4051,54.1516],[13.3897,54.1427],[13.3802,54.1518],[13.4073,54.1623],[13.4042,54.1698],[13.379,54.1771],[13.3433,54.1655],[13.3297,54.1674],[13.3424,54.1823],[13.3271,54.1836],[13.3194,54.1935],[13.3063,54.2043],[13.2974,54.2247],[13.2838,54.2363],[13.2608,54.241],[13.2157,54.2412],[13.2166,54.2494],[13.1881,54.2652],[13.1328,54.269],[13.111,54.2782],[13.1033,54.29],[13.1104,54.3075],[13.0875,54.3201],[13.076,54.3488],[13.0938,54.3658],[13.0818,54.3799],[13.0729,54.3831],[13.0485,54.3801],[13.0249,54.3974],[13.0236,54.4206],[13.0343,54.4317],[13.0158,54.4394],[12.9995,54.436],[12.9861,54.425],[12.9589,54.4231],[12.9538,54.4166],[12.9236,54.413],[12.8977,54.4017],[12.886,54.3857],[12.8831,54.3689],[12.8463,54.3511],[12.8175,54.351],[12.804,54.3704],[12.785,54.3795],[12.7689,54.3716],[12.7203,54.3719],[12.7136,54.3866],[12.7145,54.4045],[12.7075,54.4119],[12.6853,54.4064],[12.6679,54.408],[12.6602,54.3986],[12.6671,54.3888],[12.6195,54.3723],[12.6028,54.371],[12.5946,54.3581],[12.5748,54.3582],[12.5734,54.3711],[12.5547,54.3725],[12.5363,54.3667],[12.5526,54.3596],[12.5381,54.3498],[12.5297,54.3348],[12.4731,54.3296],[12.4789,54.3043],[12.4334,54.2961],[12.4159,54.2874],[12.4078,54.2767],[12.4186,54.2583],[12.45,54.2545],[12.4543,54.2466],[12.4184,54.2464],[12.398,54.2512],[12.3632,54.2671],[12.3825,54.2781],[12.367,54.2885],[12.3583,54.3027],[12.3763,54.3088],[12.396,54.3235],[12.4007,54.3431],[12.4214,54.3435],[12.4159,54.3572],[12.4191,54.3705],[12.4353,54.3785],[12.4523,54.3811],[12.5017,54.3817],[12.5177,54.3727],[12.5264,54.3809],[12.5534,54.3902],[12.5787,54.3882],[12.576,54.4027],[12.5886,54.4081],[12.6099,54.4094],[12.6174,54.4181],[12.6406,54.4222],[12.6531,54.4105],[12.668,54.4101],[12.6685,54.4206],[12.691,54.4317],[12.719,54.4321],[12.7405,54.4151],[12.7641,54.4126],[12.7778,54.4178],[12.7996,54.4092],[12.8216,54.421],[12.8575,54.4208],[12.8739,54.4139],[12.9252,54.4258],[12.9162,54.4452],[12.852,54.4405],[12.6577,54.4434],[12.6145,54.4503],[12.5553,54.4557],[12.5261,54.4712],[12.5298,54.4814],[12.5139,54.4843],[12.5008,54.4749],[12.477,54.4405],[12.4664,54.4199],[12.435,54.3909],[12.4084,54.3776],[12.3518,54.3105],[12.3349,54.2963],[12.3065,54.2822],[12.2855,54.275],[12.2234,54.2543],[12.2011,54.2447],[12.1749,54.2291],[12.1513,54.2039],[12.1282,54.1864],[12.1231,54.1777],[12.1432,54.1742],[12.1376,54.1598],[12.1102,54.1593],[12.097,54.1519],[12.0964,54.1366],[12.102,54.1111],[12.0907,54.1109],[12.0859,54.1232],[12.0906,54.1312],[12.0839,54.1445],[12.0926,54.1538],[12.0963,54.1703],[12.0868,54.1851],[12.0716,54.1793],[12.0393,54.1764],[12.0121,54.1784],[11.9985,54.175],[11.948,54.1651],[11.888,54.151],[11.8533,54.1453],[11.7976,54.1468],[11.7614,54.1545],[11.6951,54.154],[11.68,54.1524],[11.6214,54.1141],[11.5948,54.1012],[11.5609,54.0965],[11.532,54.0752],[11.5421,54.0584],[11.5869,54.0928],[11.6137,54.1025],[11.6265,54.0896],[11.6245,54.0768],[11.6102,54.0698],[11.5826,54.0637],[11.5872,54.0473],[11.5772,54.0361],[11.5618,54.0281],[11.5334,54.0254],[11.5163,54.0152],[11.492,53.99],[11.4989,53.9818],[11.4795,53.9655],[11.4822,53.9476],[11.475,53.929],[11.4582,53.9167],[11.4343,53.9101],[11.4036,53.9215],[11.4057,53.9357],[11.3897,53.9391],[11.3675,53.9346],[11.3511,53.9426],[11.3369,53.9583],[11.3264,53.9569],[11.3168,53.9434],[11.2899,53.932],[11.2699,53.9318],[11.2456,53.9428],[11.2413,53.952],[11.2459,53.9732],[11.2601,53.9817],[11.2257,53.9828],[11.2072,53.9884],[11.18,54.0152],[11.1426,54.0096],[11.0971,54.014],[11.0474,54.0077],[11.0283,54.0033],[10.9846,53.9886],[10.9335,53.9649],[10.9037,53.9568],[10.8888,53.9586],[10.8821,53.9676],[10.8842,53.9794],[10.8683,53.9918],[10.8409,53.9919],[10.8238,53.9948],[10.8039,53.9921],[10.7872,53.9974],[10.7727,54.0094],[10.7518,54.0371],[10.7571,54.0566],[10.7919,54.076],[10.8006,54.0851],[10.8007,54.0988],[10.8239,54.089],[10.8552,54.089],[10.8644,54.0849],[10.8881,54.0927],[10.9262,54.1184],[10.9489,54.1379],[11.0512,54.1787],[11.0629,54.1887],[11.0938,54.1991],[11.0912,54.2186],[11.0819,54.2518],[11.0838,54.2793],[11.0767,54.3026],[11.0719,54.3422],[11.058,54.3524],[11.0705,54.3581],[11.0822,54.3528],[11.1259,54.374],[11.1288,54.3899],[11.1105,54.3968],[11.091,54.3919],[11.0787,54.3798],[11.0282,54.3681],[10.9986,54.3696],[10.9716,54.3824],[10.9518,54.3845],[10.9312,54.3819],[10.9097,54.3689],[10.874,54.3592],[10.8292,54.33],[10.7895,54.3121],[10.7587,54.306],[10.7398,54.3096],[10.7138,54.3051],[10.6841,54.3106],[10.6782,54.3214],[10.6509,54.3321],[10.6393,54.3475],[10.5985,54.3638],[10.5418,54.3794],[10.4994,54.3863],[10.4737,54.3925],[10.4212,54.4117],[10.394,54.4247],[10.3398,54.4348],[10.3021,54.4332],[10.2874,54.4269],[10.2898,54.4195],[10.2341,54.4157],[10.2188,54.4066],[10.2081,54.3874],[10.1992,54.3803],[10.196,54.366],[10.1782,54.3611],[10.1742,54.3457],[10.1578,54.3396],[10.1414,54.3539],[10.1483,54.3675],[10.1668,54.3779],[10.1607,54.3847],[10.1906,54.3896],[10.1927,54.4026],[10.1685,54.4328],[10.1927,54.4561],[10.1706,54.4692],[10.134,54.4843],[10.1178,54.4853],[10.0852,54.4807],[10.021,54.4754],[9.9975,54.4686],[9.9609,54.4666],[9.9323,54.4609],[9.9137,54.4524],[9.8652,54.4483],[9.8438,54.4612],[9.8443,54.4765],[9.8618,54.4727],[9.8798,54.4759],[9.9166,54.4887],[9.9647,54.5025],[9.9983,54.5217],[10.016,54.5459],[10.0261,54.5497],[10.0268,54.6035],[10.0336,54.6207],[10.0312,54.6366],[10.0325,54.6603],[10.0094,54.6618],[9.9769,54.6738],[9.9484,54.674],[9.9381,54.6607],[9.938,54.6454],[9.9452,54.6367],[9.939,54.6257],[9.9073,54.6152],[9.8779,54.5986],[9.8617,54.596],[9.8382,54.5841],[9.8237,54.5834],[9.8025,54.5666],[9.7793,54.5566],[9.7657,54.5557],[9.7488,54.5465],[9.7378,54.525],[9.7008,54.5144],[9.713,54.4988],[9.6974,54.4901],[9.6751,54.4961],[9.664,54.5072],[9.6288,54.5121],[9.5812,54.5019],[9.5604,54.5018],[9.5497,54.5115],[9.5867,54.5121],[9.6049,54.5206],[9.6052,54.5268],[9.6268,54.5309],[9.6369,54.5202],[9.6484,54.5236],[9.6972,54.5274],[9.7128,54.5204],[9.7197,54.5306],[9.7349,54.5323],[9.7379,54.5421],[9.7533,54.5576],[9.7675,54.5643],[9.7723,54.5761],[9.7888,54.5733],[9.819,54.5837],[9.8333,54.5972],[9.8594,54.6022],[9.8767,54.6096],[9.8964,54.6248],[9.9315,54.6281],[9.9303,54.6411],[9.9385,54.6701],[9.9459,54.6773],[9.9626,54.6788],[9.9795,54.6871],[9.9747,54.6937],[9.991,54.6996],[10.0019,54.6882],[10.0158,54.693],[9.9896,54.7176],[9.9803,54.7372],[9.9766,54.7574],[9.9572,54.7799],[9.9061,54.7973],[9.8998,54.7732],[9.8823,54.7639],[9.8724,54.7521],[9.8362,54.7588],[9.8017,54.7843],[9.7919,54.7978],[9.7723,54.7958],[9.7616,54.8011],[9.7102,54.8089],[9.6626,54.8235],[9.6531,54.8209],[9.6229,54.8319],[9.6074,54.8299],[9.5933,54.8401],[9.5914,54.8558],[9.6014,54.8683],[9.5737,54.8637],[9.5638,54.8544],[9.5167,54.8389],[9.4919,54.8226],[9.4673,54.8236],[9.4527,54.8075],[9.4343,54.8034],[9.4229,54.8232],[9.4111,54.8423],[9.3827,54.8392],[9.3725,54.8222],[9.3546,54.8144],[9.3421,54.8036],[9.2699,54.8122],[9.2501,54.8097],[9.2358,54.8311],[9.2448,54.8439],[9.2401,54.85],[9.1551,54.8707],[9.1134,54.8735],[9.0905,54.8702],[9.0482,54.8719],[9.0148,54.8864],[8.9842,54.8921],[8.9479,54.9026],[8.892,54.9049],[8.8487,54.8973],[8.837,54.9055],[8.799,54.9046],[8.7763,54.8955],[8.7551,54.8968],[8.728,54.8927],[8.6869,54.9088],[8.638,54.9113],[8.6377,54.8986],[8.6292,54.8917],[8.6005,54.8872],[8.5115,54.8842],[8.4865,54.8767],[8.4349,54.8764],[8.4201,54.8788],[8.3727,54.8969],[8.3621,54.9102],[8.3647,54.9224],[8.3599,54.9335],[8.3617,54.9578],[8.3531,54.9672],[8.3706,54.9895],[8.3955,55.0041],[8.439,55.0154],[8.426,55.0338],[8.3985,55.0363],[8.3992,55.0469],[8.448,55.0498],[8.4203,55.0587],[8.3976,55.0533],[8.3819,55.0357],[8.3462,54.9813],[8.3182,54.9448],[8.2979,54.9107],[8.2878,54.8767],[8.2786,54.7522],[8.2965,54.7454],[8.2957,54.7607],[8.3018,54.773],[8.292,54.786],[8.3005,54.818],[8.2935,54.8257],[8.2961,54.8424],[8.3081,54.8591],[8.3328,54.8633],[8.3332,54.8728],[8.3643,54.8759],[8.3757,54.8601],[8.402,54.8488],[8.4163,54.8475],[8.4542,54.8597],[8.4883,54.8746],[8.5139,54.8819],[8.6034,54.8857],[8.6127,54.8779],[8.6084,54.8404],[8.6438,54.8194],[8.6588,54.7957],[8.6859,54.7918],[8.7017,54.7737],[8.6974,54.7604],[8.7155,54.7377],[8.6942,54.731],[8.7195,54.7257],[8.7411,54.7164],[8.7517,54.6984],[8.7539,54.6813],[8.7818,54.6657],[8.8303,54.6534],[8.8461,54.6259],[8.8869,54.6079],[8.893,54.5968],[8.8686,54.5618],[8.8762,54.5513],[8.8715,54.5283],[8.8373,54.5086],[8.8126,54.5036],[8.8061,54.4959],[8.8181,54.485],[8.8074,54.4699],[8.8418,54.4606],[8.8934,54.4606],[8.925,54.4792],[8.9311,54.4918],[8.9469,54.4993],[8.9455,54.5124],[8.9829,54.524],[9.0084,54.4967],[9.0125,54.4844],[8.9993,54.4653],[8.9902,54.4601],[8.9636,54.4555],[8.9481,54.4396],[8.9315,54.4331],[8.9114,54.4177],[8.8712,54.4048],[8.8527,54.403],[8.8334,54.4085],[8.8084,54.4094],[8.7416,54.3988],[8.6989,54.3967],[8.6743,54.4],[8.6521,54.3888],[8.6494,54.3792],[8.6595,54.374],[8.691,54.3731],[8.6927,54.3578],[8.662,54.3482],[8.6441,54.3382],[8.6229,54.3429],[8.6032,54.3407],[8.6,54.329],[8.6032,54.3133],[8.6316,54.3009],[8.6511,54.2868],[8.6744,54.2788],[8.6891,54.2786],[8.7052,54.2869],[8.7376,54.2937],[8.7697,54.2831],[8.7917,54.2818],[8.8213,54.2913],[8.8418,54.2785],[8.8448,54.2656],[8.8312,54.2367],[8.8386,54.2305],[8.8337,54.2145],[8.8188,54.2051],[8.8074,54.1756],[8.8168,54.1677],[8.8271,54.1436],[8.8369,54.1332],[8.8722,54.1254],[8.908,54.1351],[8.9292,54.1292],[8.9522,54.0888],[8.9766,54.0712],[8.9851,54.061],[8.9755,54.0398],[8.9581,54.034],[8.9402,54.0346],[8.927,54.0416],[8.8814,54.0461],[8.8593,54.043],[8.8408,54.0357],[8.8326,54.0239],[8.8561,53.9947],[8.8783,53.9799],[8.8777,53.9732],[8.8946,53.9483],[8.9149,53.9249],[8.9433,53.9114],[8.971,53.892],[9.012,53.8893],[9.0231,53.8979],[9.0417,53.8991],[9.0931,53.8883],[9.1267,53.8876],[9.1984,53.8894],[9.2241,53.8878],[9.3012,53.8697],[9.3347,53.8553],[9.3544,53.8387],[9.3794,53.8306],[9.4,53.8112],[9.4105,53.7918],[9.4085,53.7854],[9.4227,53.7692],[9.4282,53.7531],[9.4591,53.7312],[9.4878,53.7257],[9.5176,53.7139],[9.5262,53.7067],[9.5518,53.671],[9.5512,53.6519],[9.5662,53.6317],[9.5555,53.6207],[9.5938,53.6064],[9.6146,53.596],[9.6307,53.5942],[9.6525,53.5851],[9.6736,53.5717],[9.7344,53.5652],[9.7706,53.5631],[9.8263,53.5526],[9.8107,53.5417],[9.8048,53.5314],[9.7721,53.5434],[9.7643,53.5469],[9.7126,53.5511],[9.7106,53.5457],[9.684,53.5483],[9.6493,53.568],[9.6159,53.5808],[9.5966,53.5835],[9.5729,53.5939],[9.5584,53.6069],[9.5403,53.6129],[9.5181,53.6366],[9.4929,53.6781],[9.4567,53.7037],[9.4175,53.7252],[9.3536,53.7909],[9.312,53.8364],[9.2746,53.8576],[9.2004,53.8658],[9.1696,53.8667],[9.1114,53.8643],[9.0816,53.8603],[9.0294,53.8436],[9.0299,53.8256],[9.0251,53.8308],[9.0185,53.8348],[8.9785,53.84],[8.9062,53.8288],[8.8732,53.8294],[8.8325,53.8332],[8.8233,53.8311],[8.7846,53.8347],[8.7534,53.8461],[8.7311,53.8586],[8.7022,53.8787],[8.6856,53.8816],[8.6788,53.8923],[8.6149,53.8821],[8.5746,53.8434],[8.5661,53.846],[8.542,53.8071],[8.5392,53.7888],[8.499,53.7163],[8.4834,53.6948],[8.484,53.6559],[8.5204,53.6062],[8.5094,53.6031],[8.5233,53.5916],[8.5594,53.5524],[8.5644,53.5498],[8.5763,53.5389],[8.5675,53.519],[8.5527,53.5162],[8.5507,53.5375],[8.5342,53.5411],[8.5131,53.5533],[8.503,53.5506],[8.4605,53.5534],[8.4357,53.5621],[8.3845,53.5739],[8.349,53.6062],[8.338,53.6116],[8.3116,53.6163],[8.2911,53.6129],[8.2639,53.6007],[8.243,53.5824],[8.2372,53.561],[8.2308,53.5208],[8.2648,53.5185],[8.3001,53.5259],[8.3169,53.5146],[8.3148,53.4573],[8.2976,53.4429],[8.2976,53.4306],[8.2675,53.4051],[8.2508,53.3986],[8.2108,53.4015],[8.1956,53.4092],[8.1939,53.4159],[8.1531,53.447],[8.1369,53.4527],[8.1003,53.4454],[8.0784,53.4598],[8.0623,53.4825],[8.0623,53.5057],[8.0955,53.5022],[8.1547,53.5145],[8.1663,53.5268],[8.1564,53.5317],[8.1687,53.5447],[8.1618,53.5498],[8.1424,53.5797],[8.1556,53.5858],[8.1489,53.6018],[8.1241,53.5984],[8.1143,53.6161],[8.0913,53.6381],[8.073,53.647],[8.0447,53.6414],[8.0326,53.6567],[8.0233,53.6908],[8.0321,53.7053],[8.0121,53.7117],[7.9638,53.7161],[7.9133,53.7178],[7.8806,53.716],[7.8099,53.7077],[7.7878,53.7094],[7.763,53.7015],[7.7298,53.6993],[7.7078,53.7028],[7.6849,53.7008],[7.6305,53.6888],[7.6042,53.6861],[7.5881,53.6802],[7.5502,53.675],[7.5163,53.6721],[7.4806,53.6832],[7.4269,53.6841],[7.3778,53.6825],[7.3605,53.6868],[7.311,53.6823],[7.2811,53.6743],[7.2431,53.6685],[7.2219,53.657],[7.1826,53.6409],[7.1702,53.6289],[7.1565,53.6225],[7.1401,53.6072],[7.1124,53.5948],[7.0903,53.5797],[7.0871,53.5715],[7.1049,53.5607],[7.131,53.5329],[7.1072,53.5283],[7.0933,53.5217],[7.0828,53.5295],[7.0704,53.5268],[7.0401,53.5384],[7.0336,53.5338],[7.048,53.5067],[7.0253,53.4844],[7.0256,53.4768],[7.012,53.4341],[7.0127,53.4064],[7.0057,53.3761],[6.9981,53.3717],[6.9994,53.3599],[7.02,53.339],[7.0491,53.3385],[7.0596,53.3347],[7.1706,53.3355],[7.2404,53.3317],[7.2727,53.3248],[7.3021,53.3236],[7.286,53.3174],[7.2484,53.3204],[7.2425,53.3027],[7.2346,53.2982],[7.2362,53.275],[7.2253,53.2547],[7.2089,53.2431],[7.2169,53.2145],[7.2176,53.199],[7.208,53.1885],[7.227,53.1799],[7.2037,53.1765],[7.1905,53.1618],[7.1896,53.148],[7.1789,53.1381],[7.1829,53.1217],[7.2028,53.1133],[7.1993,53.081],[7.2128,53.011],[7.2093,53.0002],[7.1816,52.9413],[7.1047,52.8642],[7.0873,52.8499],[7.0927,52.8382],[7.072,52.8109],[7.0628,52.7107],[7.0547,52.6444],[7.0419,52.6327],[7.0062,52.6388],[6.9758,52.6463],[6.9672,52.6417],[6.94,52.638],[6.9197,52.6398],[6.8982,52.6511],[6.85,52.6488],[6.8325,52.6517],[6.8227,52.6478],[6.7835,52.6525],[6.768,52.6469],[6.742,52.6453],[6.7143,52.6268],[6.7271,52.6148],[6.7187,52.5887],[6.7667,52.5635],[6.751,52.5592],[6.7262,52.5632],[6.7161,52.5486],[6.6809,52.5533],[6.7044,52.5221],[6.6977,52.4863],[6.7531,52.4638],[6.7746,52.4596],[6.8543,52.4596],[6.8619,52.4514],[6.9417,52.4355],[6.9622,52.4446],[6.9776,52.4655],[6.994,52.4655],[7.0109,52.4291],[7.0221,52.4227],[7.0358,52.4025],[7.0588,52.3993],[7.0722,52.3734],[7.0722,52.3523],[7.0569,52.3386],[7.0468,52.3162],[7.0267,52.2922],[7.0275,52.2776],[7.0424,52.2561],[7.0659,52.2413],[7.061,52.2348],[7.039,52.2276],[7.0192,52.225],[7.0035,52.2285],[6.985,52.225],[6.9742,52.2052],[6.9513,52.181],[6.9121,52.1772],[6.9058,52.17],[6.882,52.1559],[6.8728,52.1322],[6.8554,52.1204],[6.8213,52.1182],[6.7606,52.1187],[6.7576,52.0994],[6.7445,52.0931],[6.7512,52.0855],[6.7356,52.0747],[6.7143,52.0729],[6.6968,52.0673],[6.6879,52.0524],[6.6877,52.0399],[6.7147,52.0399],[6.7526,52.0286],[6.8115,51.9981],[6.8266,51.9935],[6.8324,51.9703],[6.8285,51.9641],[6.7986,51.9588],[6.794,51.9351],[6.77,51.9162],[6.7541,51.9126],[6.7217,51.8962],[6.6923,51.9146],[6.6745,51.9159],[6.6376,51.9044],[6.5856,51.8939],[6.5561,51.8818],[6.5524,51.8862],[6.5244,51.8742],[6.501,51.867],[6.5008,51.8625],[6.4726,51.8538],[6.4511,51.8653],[6.4286,51.8651],[6.3921,51.874],[6.3881,51.862],[6.4092,51.8523],[6.4024,51.8433],[6.4078,51.8281],[6.3895,51.8333],[6.3629,51.8362],[6.3578,51.8473],[6.3468,51.8506],[6.3066,51.8492],[6.2957,51.8683],[6.2712,51.8745],[6.2618,51.8681],[6.2341,51.8701],[6.2154,51.8678],[6.1959,51.8746],[6.1819,51.8859],[6.1858,51.8927],[6.1572,51.9052],[6.1085,51.8942],[6.1374,51.8856],[6.1445,51.8699],[6.1665,51.8614],[6.1664,51.8408],[6.1436,51.8461],[6.0934,51.8509],[6.0634,51.8654],[6.0553,51.8526],[6.029,51.8451],[6.0026,51.8326],[5.987,51.8306],[5.9629,51.8368],[5.945,51.8237],[5.9578,51.8172],[5.9558,51.8101],[5.9782,51.7972],[5.9726,51.7895],[5.9877,51.783],[5.9823,51.7737],[5.9905,51.7662],[5.952,51.7491],[5.9591,51.7383],[5.9942,51.7383],[6.0291,51.7257],[6.0354,51.7177],[6.0262,51.7087],[6.0318,51.6923],[6.0298,51.6782],[6.0369,51.6728],[6.088,51.6598],[6.1182,51.6561],[6.1095,51.6468],[6.0912,51.6059],[6.1213,51.5928],[6.1306,51.5811],[6.157,51.5667],[6.177,51.5387],[6.1993,51.528],[6.2121,51.5134],[6.2128,51.4923],[6.2234,51.4749],[6.22,51.4553],[6.2139,51.4463],[6.2149,51.4344],[6.2052,51.3995],[6.2144,51.3896],[6.2244,51.365],[6.2261,51.3605],[6.1898,51.3393],[6.1686,51.3329],[6.1541,51.3074],[6.1298,51.2866],[6.1245,51.2746],[6.085,51.2474],[6.0727,51.2426],[6.0858,51.2226],[6.068,51.2205],[6.0733,51.183],[6.0823,51.1716],[6.11,51.1734],[6.131,51.1841],[6.165,51.1944],[6.1748,51.1845],[6.1388,51.1733],[6.1754,51.1585],[6.16,51.1492],[6.126,51.1451],[6.1212,51.1409],[6.0919,51.135],[6.0835,51.1239],[6.0624,51.1168],[6.0359,51.0962],[6.0099,51.091],[5.9978,51.0843],[5.971,51.0578],[5.9672,51.0443],[5.9578,51.0355],[5.9381,51.0351],[5.9132,51.0667],[5.8868,51.0521],[5.8663,51.0512],[5.878,51.0375],[5.8792,51.0176],[5.8958,51.011],[5.9055,51.0022],[5.9038,50.9875],[5.8927,50.9803],[5.9047,50.9745],[5.9336,50.9853],[5.9552,50.9884],[5.9682,50.9795],[6.0174,50.9834],[6.0269,50.9816],[6.0156,50.9627],[6.0182,50.9344],[6.093,50.9185],[6.0869,50.9131],[6.0753,50.891],[6.0882,50.8724],[6.0773,50.8607],[6.074,50.8468],[6.0572,50.8556],[6.0189,50.8463],[6.0159,50.8388],[6.0248,50.828],[6.0251,50.8142],[6.0035,50.8013],[5.9855,50.8106],[5.9749,50.798],[5.988,50.7941],[6.0106,50.7801],[6.0278,50.7737],[6.0183,50.7632],[6.0214,50.7531],[6.0405,50.7455],[6.0343,50.7334],[6.0496,50.7261],[6.0732,50.721],[6.1107,50.7229],[6.1192,50.7197],[6.1232,50.7071],[6.1393,50.6936],[6.1454,50.6813],[6.1648,50.6633],[6.188,50.6651],[6.1961,50.6621],[6.1971,50.6567],[6.1863,50.642],[6.2107,50.6406],[6.2243,50.6433],[6.2287,50.6498],[6.2356,50.6488],[6.2484,50.6414],[6.2656,50.6427],[6.274,50.6305],[6.2691,50.6192],[6.2499,50.6054],[6.2412,50.5871],[6.2368,50.5663],[6.2273,50.556],[6.2125,50.5543],[6.197,50.531],[6.2077,50.5234],[6.2102,50.5131],[6.2307,50.4975],[6.2517,50.5035],[6.2699,50.5045],[6.2975,50.4976],[6.3156,50.497],[6.3313,50.4927],[6.3409,50.4825],[6.3405,50.4622],[6.3629,50.4539],[6.3718,50.4556],[6.3776,50.4394],[6.3667,50.4192],[6.37,50.4098],[6.3569,50.3911],[6.3422,50.38],[6.3606,50.3715],[6.3763,50.3552],[6.3975,50.3462],[6.4079,50.3351],[6.405,50.3233],[6.3826,50.322],[6.3751,50.3138],[6.3359,50.3175],[6.3273,50.3245],[6.3055,50.3176],[6.2854,50.286],[6.2921,50.2788],[6.2779,50.2664],[6.2587,50.2678],[6.2455,50.2619],[6.2187,50.2563],[6.2003,50.2398],[6.1755,50.2351],[6.1777,50.2167],[6.1856,50.2033],[6.1875,50.1789],[6.1469,50.1778],[6.1475,50.1606],[6.1547,50.1419],[6.1388,50.135],[6.1281,50.1162],[6.1332,50.1025],[6.1195,50.0896],[6.1219,50.0692],[6.1124,50.0605],[6.1343,50.0394],[6.1302,50.0293],[6.1459,50.0227],[6.1391,50.0108],[6.1494,50.0063],[6.1426,49.9947],[6.1695,49.9842],[6.1648,49.9737],[6.1773,49.9547],[6.2059,49.9552],[6.2273,49.9366],[6.2262,49.9294],[6.234,49.9],[6.2461,49.8956],[6.2621,49.8809],[6.311,49.8699],[6.3227,49.8507],[6.3205,49.8397],[6.3379,49.8407],[6.3401,49.8482],[6.3642,49.8508],[6.3974,49.8223],[6.4259,49.8157],[6.432,49.8106],[6.4545,49.8115],[6.475,49.8213],[6.4888,49.8119],[6.505,49.8096],[6.5216,49.8132],[6.5308,49.8056],[6.5079,49.7919],[6.5168,49.7818],[6.5098,49.7742],[6.5184,49.7617],[6.5005,49.7521],[6.5016,49.7347],[6.4951,49.7247],[6.506,49.7168],[6.4793,49.6964],[6.4581,49.6901],[6.4473,49.6782],[6.4266,49.6648],[6.4408,49.6559],[6.4223,49.6213],[6.4023,49.6045],[6.3846,49.5993],[6.3744,49.5911],[6.3815,49.5814],[6.3596,49.5754],[6.359,49.5703],[6.3801,49.5595],[6.3801,49.5511],[6.3579,49.533],[6.3656,49.5092],[6.369,49.4881],[6.3671,49.4695],[6.3934,49.4641],[6.4291,49.4762],[6.4405,49.4667],[6.4628,49.465],[6.4863,49.4516],[6.4994,49.4504],[6.5248,49.4354],[6.5344,49.4353],[6.557,49.4192],[6.5373,49.4094],[6.5408,49.4013],[6.5636,49.3881],[6.5768,49.3898],[6.5873,49.3844],[6.5831,49.3684],[6.6022,49.3671],[6.5897,49.3511],[6.5741,49.3587],[6.565,49.3494],[6.5956,49.3301],[6.5891,49.3221],[6.6048,49.3121],[6.661,49.2825],[6.6678,49.271],[6.6604,49.2612],[6.6907,49.2478],[6.6854,49.243],[6.6958,49.2153],[6.7235,49.2188],[6.7314,49.206],[6.7112,49.1883],[6.7203,49.1753],[6.7386,49.1637],[6.78,49.1684],[6.8341,49.1511],[6.8475,49.1572],[6.8444,49.1731],[6.8618,49.1788],[6.8505,49.1934],[6.8524,49.1995],[6.8363,49.2113],[6.8589,49.2228],[6.8732,49.2148],[6.8933,49.2091],[6.9115,49.2151],[6.9187,49.2227],[6.9381,49.2224],[6.9399,49.2167],[6.9596,49.2031],[6.9752,49.2095],[7.0108,49.188],[7.035,49.1914],[7.0285,49.1758],[7.0333,49.1549],[7.0468,49.1354],[7.0442,49.1202],[7.0517,49.113],[7.0666,49.1142],[7.0718,49.1243],[7.0894,49.1302],[7.0813,49.1492],[7.1011,49.156],[7.1247,49.142],[7.1362,49.1283],[7.1558,49.1214],[7.1836,49.13],[7.1963,49.1217],[7.2451,49.1301],[7.2657,49.1227],[7.2838,49.1234],[7.2984,49.1173],[7.3155,49.1385],[7.3298,49.1448],[7.3627,49.1431],[7.3614,49.1534],[7.3688,49.1615],[7.3651,49.1718],[7.3793,49.1749],[7.4359,49.1797],[7.4577,49.163],[7.4673,49.1673],[7.494,49.1694],[7.4932,49.1606],[7.5064,49.1547],[7.4967,49.1354],[7.5055,49.1224],[7.5155,49.121],[7.5287,49.0971],[7.5498,49.0858],[7.5691,49.0795],[7.601,49.0832],[7.6308,49.0726],[7.6312,49.0549],[7.6734,49.0451],[7.6923,49.0489],[7.6959,49.0578],[7.7202,49.0516],[7.7314,49.0555],[7.7407,49.0473],[7.7693,49.0476],[7.7763,49.0565],[7.7944,49.0657],[7.8157,49.055],[7.8516,49.0423],[7.8668,49.0329],[7.8891,49.049],[7.9107,49.0451],[7.923,49.0437],[7.9318,49.0581],[7.9451,49.0554],[7.949,49.0472],[7.9644,49.0429],[7.9745,49.0272],[7.994,49.029],[8.0138,49.021],[8.05,49.0138],[8.0684,48.9993],[8.0701,48.9963],[8.1254,48.9847],[8.1535,48.9771],[8.1706,48.979],[8.1944,48.9771],[8.1993,48.9669],[8.2226,48.9759],[8.2326,48.9666],[8.2029,48.9598],[8.1936,48.954],[8.1792,48.9346],[8.1558,48.9123],[8.1352,48.8875],[8.1108,48.8421],[8.1038,48.8201],[8.0943,48.8083],[8.0722,48.7924],[8.0589,48.7889],[8.0416,48.7908],[8.0258,48.7822],[8.0236,48.7697],[8.0078,48.7592],[7.9804,48.7609],[7.9672,48.7467],[7.967,48.7263],[7.9596,48.7186],[7.89,48.6626],[7.8481,48.6469],[7.838,48.6389],[7.8303,48.6199],[7.8048,48.5926],[7.8002,48.5787],[7.8054,48.5611],[7.8035,48.5383],[7.8061,48.5164],[7.7919,48.5002],[7.7669,48.4871],[7.766,48.4605],[7.7617,48.4485],[7.7358,48.4039],[7.7319,48.3764],[7.7456,48.3325],[7.7316,48.3172],[7.7104,48.3116],[7.6916,48.2991],[7.6892,48.2808],[7.6807,48.2573],[7.6685,48.2255],[7.661,48.2168],[7.6441,48.2073],[7.6295,48.1837],[7.6018,48.1592],[7.6002,48.1388],[7.5783,48.1223],[7.5773,48.1157],[7.579,48.0998],[7.5692,48.08],[7.5739,48.0549],[7.5685,48.0352],[7.5717,48.0304],[7.6035,48.0052],[7.6134,47.9947],[7.6217,47.9765],[7.6209,47.969],[7.6096,47.9542],[7.588,47.9371],[7.5811,47.9268],[7.5829,47.9034],[7.5798,47.8949],[7.5589,47.8818],[7.556,47.867],[7.5629,47.8538],[7.5629,47.8427],[7.5489,47.8213],[7.5321,47.7878],[7.5334,47.766],[7.546,47.7436],[7.5476,47.7298],[7.534,47.7142],[7.5177,47.7051],[7.5123,47.6949],[7.5189,47.6847],[7.5211,47.6638],[7.5379,47.6492],[7.5674,47.6317],[7.5743,47.6158],[7.593,47.6008],[7.5892,47.5897],[7.5963,47.5867]]],[[[13.7976,54.174],[13.7739,54.1724],[13.7561,54.1655],[13.7497,54.1569],[13.7555,54.1377],[13.7723,54.1338],[13.7746,54.1208],[13.7925,54.1109],[13.8047,54.1102],[13.813,54.0988],[13.8083,54.0812],[13.8008,54.0748],[13.7906,54.0487],[13.7729,54.0408],[13.7635,54.0265],[13.7699,54.0192],[13.8013,54.0187],[13.8106,54.0312],[13.8449,54.0423],[13.8553,54.0485],[13.8797,54.0403],[13.8534,54.0141],[13.8647,54.0067],[13.8987,54.0121],[13.9173,54.0334],[13.9104,54.0488],[13.9185,54.0628],[13.9514,54.059],[13.9687,54.0599],[13.9977,54.0415],[14.0044,54.0107],[14.0214,54.0187],[14.0349,54.0158],[14.0476,53.9974],[14.0489,53.9806],[14.0354,53.9511],[14.0114,53.95],[13.9952,53.9628],[13.964,53.9574],[13.9724,53.9707],[13.9642,53.9746],[13.965,53.9898],[13.9451,53.9946],[13.9111,53.9912],[13.9003,53.9832],[13.8966,53.9637],[13.9227,53.9506],[13.9322,53.9354],[13.932,53.9203],[13.9383,53.9138],[13.9309,53.8994],[13.9189,53.888],[13.904,53.8858],[13.8917,53.8766],[13.8755,53.8779],[13.859,53.8717],[13.8341,53.871],[13.8262,53.8497],[13.8466,53.851],[13.8633,53.8427],[13.8908,53.8399],[13.9135,53.8432],[13.9217,53.8509],[13.9283,53.8694],[13.9547,53.8613],[13.9506,53.8503],[13.9618,53.8462],[13.9887,53.8483],[14.0077,53.8584],[14.0197,53.8693],[14.0433,53.8743],[14.0628,53.8695],[14.0847,53.8748],[14.1177,53.87],[14.1945,53.8721],[14.2118,53.867],[14.2154,53.8812],[14.2123,53.9003],[14.2039,53.9066],[14.2076,53.9159],[14.2261,53.9277],[14.1849,53.9466],[14.1433,53.9761],[14.05,54.0294],[14.0138,54.0548],[13.9689,54.0698],[13.9383,54.0747],[13.8992,54.0887],[13.8747,54.1003],[13.8403,54.1247],[13.8296,54.1365],[13.8122,54.1696],[13.7976,54.174]]],[[[6.1823,50.6451],[6.1833,50.6323],[6.2169,50.6322],[6.2355,50.6259],[6.2667,50.6272],[6.264,50.641],[6.243,50.6404],[6.2315,50.648],[6.2226,50.6401],[6.1866,50.6398],[6.1823,50.6451]]],[[[6.2379,50.5779],[6.2395,50.5875],[6.2252,50.5905],[6.2031,50.5693],[6.1744,50.5575],[6.178,50.5416],[6.1967,50.5362],[6.209,50.5546],[6.2233,50.5559],[6.2337,50.5661],[6.2379,50.5779]]],[[[7.4318,53.7271],[7.4304,53.7322],[7.3939,53.7361],[7.3604,53.728],[7.3886,53.7203],[7.4266,53.7203],[7.4318,53.7271]]],[[[7.3439,53.7255],[7.3148,53.7269],[7.2304,53.7224],[7.1863,53.7227],[7.1434,53.7112],[7.1413,53.7012],[7.1528,53.6969],[7.1695,53.7012],[7.1991,53.7003],[7.2155,53.7036],[7.2702,53.7037],[7.3218,53.7121],[7.3408,53.7182],[7.3439,53.7255]]],[[[6.7847,53.6126],[6.7681,53.617],[6.6565,53.6079],[6.6475,53.6047],[6.6565,53.585],[6.6653,53.5775],[6.6974,53.5654],[6.7169,53.5709],[6.7451,53.5697],[6.7272,53.5813],[6.7546,53.5962],[6.7879,53.5972],[6.8178,53.603],[6.7847,53.6126]]],[[[11.473,54.0244],[11.4551,54.0232],[11.404,54.0088],[11.3742,53.9923],[11.3779,53.9754],[11.3872,53.9702],[11.4266,53.9674],[11.4281,53.9861],[11.4455,53.9974],[11.4435,53.9606],[11.4639,53.9665],[11.4804,53.9818],[11.4782,53.998],[11.491,54.0008],[11.4963,54.0156],[11.4922,54.0226],[11.473,54.0244]]],[[[7.7245,53.782],[7.7003,53.781],[7.6834,53.7764],[7.6658,53.7602],[7.675,53.7524],[7.7072,53.7632],[7.7401,53.7607],[7.7952,53.7693],[7.8133,53.781],[7.7245,53.782]]],[[[7.5653,53.7592],[7.4909,53.7566],[7.4693,53.7461],[7.4603,53.7257],[7.476,53.7215],[7.5015,53.7307],[7.5116,53.7433],[7.5389,53.7432],[7.5691,53.7481],[7.611,53.7462],[7.6306,53.7481],[7.639,53.756],[7.5991,53.759],[7.5653,53.7592]]],[[[11.0862,54.5306],[11.0607,54.5333],[11.0312,54.5118],[11.0103,54.4826],[11.0043,54.449],[11.0216,54.4378],[11.037,54.4465],[11.0632,54.4528],[11.097,54.4433],[11.1018,54.4316],[11.0949,54.4226],[11.0951,54.4095],[11.121,54.4021],[11.173,54.4015],[11.1661,54.4128],[11.1731,54.4196],[11.197,54.4199],[11.2102,54.4139],[11.255,54.4113],[11.2743,54.4064],[11.3127,54.4023],[11.2981,54.4308],[11.2794,54.4459],[11.2758,54.4563],[11.2535,54.4711],[11.2424,54.4935],[11.2258,54.505],[11.1968,54.5091],[11.1655,54.5225],[11.1353,54.5241],[11.0862,54.5306]]],[[[13.137,54.6048],[13.1188,54.6031],[13.0978,54.5902],[13.1025,54.5774],[13.0927,54.5462],[13.086,54.5381],[13.0793,54.5172],[13.0656,54.4924],[13.0602,54.4749],[13.073,54.4689],[13.0846,54.5192],[13.1169,54.538],[13.1172,54.5513],[13.11,54.5819],[13.1299,54.5916],[13.1449,54.5888],[13.1468,54.6034],[13.137,54.6048]]],[[[13.1836,54.494],[13.1579,54.4881],[13.1438,54.4783],[13.1206,54.4438],[13.1634,54.4499],[13.1699,54.4568],[13.1817,54.4561],[13.1868,54.4654],[13.2269,54.4739],[13.2226,54.4839],[13.2007,54.4855],[13.1836,54.494]]],[[[13.4304,54.6843],[13.4063,54.6822],[13.3742,54.6834],[13.3361,54.6754],[13.2876,54.6738],[13.2511,54.6606],[13.2199,54.6408],[13.2257,54.6123],[13.2148,54.5956],[13.1826,54.5772],[13.1679,54.574],[13.1602,54.5639],[13.1828,54.5646],[13.214,54.5843],[13.2284,54.5874],[13.2373,54.599],[13.2302,54.6091],[13.2275,54.6255],[13.2643,54.6433],[13.2824,54.6457],[13.2875,54.6253],[13.2767,54.6093],[13.2595,54.5937],[13.2433,54.5595],[13.2778,54.5644],[13.3324,54.5819],[13.3275,54.5932],[13.3435,54.5987],[13.3536,54.6112],[13.3711,54.6143],[13.3843,54.5957],[13.3844,54.5818],[13.3979,54.5723],[13.427,54.5674],[13.4461,54.5516],[13.4916,54.5523],[13.5022,54.5483],[13.5146,54.5133],[13.5001,54.4926],[13.5033,54.4793],[13.5267,54.4803],[13.5481,54.4749],[13.5476,54.447],[13.5572,54.4385],[13.5398,54.4336],[13.5413,54.4193],[13.5317,54.4162],[13.4763,54.4246],[13.4756,54.4326],[13.5131,54.4422],[13.5075,54.4503],[13.4733,54.4518],[13.4715,54.4578],[13.4838,54.4737],[13.4701,54.4816],[13.4509,54.4734],[13.4399,54.4881],[13.4136,54.4936],[13.4074,54.5026],[13.4146,54.5199],[13.3963,54.5378],[13.3796,54.5475],[13.3741,54.5603],[13.3556,54.5463],[13.3888,54.5396],[13.3877,54.5313],[13.3715,54.5222],[13.3453,54.5248],[13.3607,54.5366],[13.3494,54.5517],[13.369,54.5789],[13.355,54.581],[13.2998,54.555],[13.3121,54.5244],[13.3086,54.5151],[13.2884,54.5217],[13.2894,54.5416],[13.2553,54.5519],[13.2384,54.5543],[13.1744,54.5457],[13.1442,54.547],[13.1597,54.5355],[13.1624,54.5138],[13.1707,54.5078],[13.2012,54.504],[13.2314,54.5109],[13.2274,54.4868],[13.2358,54.4827],[13.2556,54.4865],[13.2583,54.474],[13.2422,54.4727],[13.2177,54.4592],[13.1702,54.4535],[13.1618,54.4381],[13.15,54.4297],[13.1509,54.4219],[13.1717,54.4252],[13.1891,54.4232],[13.2128,54.4291],[13.2205,54.4138],[13.2416,54.3848],[13.2347,54.3695],[13.2031,54.3711],[13.197,54.3759],[13.1735,54.3716],[13.1576,54.3749],[13.1362,54.3734],[13.1238,54.3659],[13.1217,54.3508],[13.1137,54.3348],[13.135,54.3241],[13.1351,54.3174],[13.1696,54.3098],[13.1403,54.2969],[13.1442,54.2814],[13.1693,54.2896],[13.1811,54.2874],[13.193,54.2971],[13.1992,54.2705],[13.2171,54.273],[13.2398,54.2663],[13.2465,54.2597],[13.2682,54.2537],[13.2874,54.2592],[13.3266,54.2549],[13.316,54.2413],[13.3816,54.2293],[13.3916,54.2218],[13.4251,54.2392],[13.4185,54.2545],[13.4016,54.2657],[13.3788,54.2533],[13.3593,54.2724],[13.3844,54.2776],[13.3954,54.2722],[13.4132,54.2901],[13.4196,54.3028],[13.4483,54.3147],[13.4613,54.3159],[13.4667,54.3304],[13.4795,54.3303],[13.5094,54.3441],[13.5508,54.3397],[13.5715,54.3518],[13.588,54.3521],[13.6035,54.3442],[13.6116,54.3309],[13.637,54.3385],[13.6376,54.3453],[13.6816,54.35],[13.677,54.3297],[13.7047,54.3225],[13.6986,54.316],[13.6581,54.3045],[13.6454,54.2981],[13.6551,54.2885],[13.6887,54.2907],[13.7022,54.2956],[13.7095,54.2799],[13.7193,54.3115],[13.7352,54.3314],[13.7451,54.337],[13.7418,54.3475],[13.7212,54.3591],[13.7048,54.3806],[13.6729,54.4012],[13.623,54.3992],[13.6006,54.4124],[13.5781,54.4391],[13.5699,54.4672],[13.578,54.4796],[13.5972,54.4881],[13.6076,54.4975],[13.6468,54.5144],[13.6686,54.5205],[13.6818,54.5432],[13.6799,54.5623],[13.6612,54.5758],[13.6387,54.5844],[13.5883,54.5844],[13.4908,54.5731],[13.4713,54.5754],[13.4604,54.5706],[13.435,54.5746],[13.4073,54.5874],[13.3837,54.612],[13.3772,54.6349],[13.3876,54.6495],[13.4285,54.6601],[13.4389,54.6775],[13.4304,54.6843]]]]}}