{"type":"Feature","properties":{"name":"Deutschland","attribution":"© GeoBasis-DE / BKG (dl-de/by-2-0)"},"geometry":{"type":"MultiPolygon","coordinates":[[[[8.5182,54.5788],[8.5173,54.5699],[8.5381,54.5648],[8.548,54.557],[8.5756,54.5605],[8.5573,54.5786],[8.5327,54.5752],[8.5182,54.5788]]],[[[8.6568,54.6437],[8.6635,54.6559],[8.6519,54.6576],[8.637,54.6492],[8.6027,54.6419],[8.5537,54.6355],[8.5405,54.6364],[8.5289,54.6273],[8.5485,54.6203],[8.5846,54.6341],[8.6026,54.633],[8.6468,54.6393],[8.6568,54.6437]]],[[[8.3424,54.6936],[8.3206,54.6918],[8.3032,54.6796],[8.2963,54.6641],[8.3056,54.6532],[8.3408,54.6262],[8.3674,54.6084],[8.3955,54.6132],[8.3821,54.6398],[8.362,54.6491],[8.3424,54.6936]]],[[[8.705,54.5576],[8.6864,54.5571],[8.6681,54.55],[8.641,54.5454],[8.6228,54.535],[8.5979,54.5343],[8.5875,54.5278],[8.5922,54.5087],[8.6207,54.49],[8.6381,54.4894],[8.6698,54.4945],[8.6831,54.5026],[8.706,54.5376],[8.7109,54.553],[8.705,54.5576]]],[[[8.5633,54.7524],[8.5373,54.7559],[8.5211,54.7516],[8.4626,54.7499],[8.4273,54.7462],[8.411,54.7371],[8.3972,54.7199],[8.3965,54.7042],[8.4318,54.6939],[8.4536,54.692],[8.4707,54.6826],[8.4849,54.6803],[8.5284,54.6815],[8.5665,54.68],[8.5857,54.7139],[8.5887,54.741],[8.5633,54.7524]]],[[[8.8448,54.2656],[8.8312,54.2367],[8.8386,54.2305],[8.8337,54.2145],[8.8188,54.2051],[8.8074,54.1756],[8.8168,54.1677],[8.8271,54.1436],[8.8369,54.1332],[8.8722,54.1254],[8.908,54.1351],[8.9292,54.1292],[8.9522,54.0888],[8.9766,54.0712],[8.9851,54.061],[8.9755,54.0398],[8.9581,54.034],[8.9402,54.0346],[8.927,54.0416],[8.8814,54.0461],[8.8593,54.043],[8.8408,54.0357],[8.8326,54.0239],[8.8561,53.9947],[8.8783,53.9799],[8.8777,53.9732],[8.8946,53.9483],[8.9149,53.9249],[8.9433,53.9114],[8.971,53.892],[9.012,53.8893],[9.0231,53.8979],[9.0417,53.8991],[9.0931,53.8883],[9.1267,53.8876],[9.1984,53.8894],[9.2241,53.8878],[9.3012,53.8697],[9.3347,53.8553],[9.3544,53.8387],[9.3794,53.8306],[9.4,53.8112],[9.4105,53.7918],[9.4085,53.7854],[9.4227,53.7692],[9.4282,53.7531],[9.4591,53.7312],[9.4878,53.7257],[9.5176,53.7139],[9.5262,53.7067],[9.5518,53.671],[9.5512,53.6519],[9.5662,53.6317],[9.5555,53.6207],[9.5938,53.6064],[9.6146,53.596],[9.6307,53.5942],[9.6525,53.5851],[9.6736,53.5717],[9.7344,53.5652],[9.7706,53.5631],[9.8263,53.5526],[9.8107,53.5417],[9.8048,53.5314],[9.7721,53.5434],[9.7643,53.5469],[9.7126,53.5511],[9.7106,53.5457],[9.684,53.5483],[9.6493,53.568],[9.6159,53.5808],[9.5966,53.5835],[9.5729,53.5939],[9.5584,53.6069],[9.5403,53.6129],[9.5181,53.6366],[9.4929,53.6781],[9.4567,53.7037],[9.4175,53.7252],[9.3536,53.7909],[9.312,53.8364],[9.2746,53.8576],[9.2004,53.8658],[9.1696,53.8667],[9.1114,53.8643],[9.0816,53.8603],[9.0294,53.8436],[9.0299,53.8256],[9.0251,53.8308],[9.0185,53.8348],[8.9785,53.84],[8.9062,53.8288],[8.8732,53.8294],[8.8325,53.8332],[8.8233,53.8311],[8.7846,53.8347],[8.7534,53.8461],[8.7311,53.8586],[8.7022,53.8787],[8.6856,53.8816],[8.6788,53.8923],[8.6149,53.8821],[8.5746,53.8434],[8.5661,53.846],[8.542,53.8071],[8.5392,53.7888],[8.499,53.7163],[8.4834,53.6948],[8.484,53.6559],[8.5204,53.6062],[8.5094,53.6031],[8.5233,53.5916],[8.5594,53.5524],[8.5644,53.5498],[8.5763,53.5389],[8.5675,53.519],[8.5527,53.5162],[8.5507,53.5375],[8.5342,53.5411],[8.5131,53.5533],[8.503,53.5506],[8.4605,53.5534],[8.4357,53.5621],[8.3845,53.5739],[8.349,53.6062],[8.338,53.6116],[8.3116,53.6163],[8.2911,53.6129],[8.2639,53.6007],[8.243,53.5824],[8.2372,53.561],[8.2308,53.5208],[8.2648,53.5185],[8.3001,53.5259],[8.3169,53.5146],[8.3148,53.4573],[8.2976,53.4429],[8.2976,53.4306],[8.2675,53.4051],[8.2508,53.3986],[8.2108,53.4015],[8.1956,53.4092],[8.1939,53.4159],[8.1531,53.447],[8.1369,53.4527],[8.1003,53.4454],[8.0784,53.4598],[8.0623,53.4825],[8.0623,53.5057],[8.0955,53.5022],[8.1547,53.5145],[8.1663,53.5268],[8.1564,53.5317],[8.1687,53.5447],[8.1618,53.5498],[8.1424,53.5797],[8.1556,53.5858],[8.1489,53.6018],[8.1241,53.5984],[8.1143,53.6161],[8.0913,53.6381],[8.073,53.647],[8.0447,53.6414],[8.0326,53.6567],[8.0233,53.6908],[8.0321,53.7053],[8.0121,53.7117],[7.9638,53.7161],[7.9133,53.7178],[7.8806,53.716],[7.8099,53.7077],[7.7878,53.7094],[7.763,53.7015],[7.7298,53.6993],[7.7078,53.7028],[7.6849,53.7008],[7.6305,53.6888],[7.6042,53.6861],[7.5881,53.6802],[7.5502,53.675],[7.5163,53.6721],[7.4806,53.6832],[7.4269,53.6841],[7.3778,53.6825],[7.3605,53.6868],[7.311,53.6823],[7.2811,53.6743],[7.2431,53.6685],[7.2219,53.657],[7.1826,53.6409],[7.1702,53.6289],[7.1565,53.6225],[7.1401,53.6072],[7.1124,53.5948],[7.0903,53.5797],[7.0871,53.5715],[7.1049,53.5607],[7.131,53.5329],[7.1072,53.5283],[7.0933,53.5217],[7.0828,53.5295],[7.0704,53.5268],[7.0401,53.5384],[7.0336,53.5338],[7.048,53.5067],[7.0253,53.4844],[7.0256,53.4768],[7.012,53.4341],[7.0127,53.4064],[7.0057,53.3761],[6.9981,53.3717],[6.9994,53.3599],[7.02,53.339],[7.0491,53.3385],[7.0596,53.3347],[7.1706,53.3355],[7.2404,53.3317],[7.2727,53.3248],[7.3021,53.3236],[7.286,53.3174],[7.2484,53.3204],[7.2425,53.3027],[7.2346,53.2982],[7.2362,53.275],[7.2253,53.2547],[7.2089,53.2431],[7.2169,53.2145],[7.2176,53.199],[7.208,53.1885],[7.227,53.1799],[7.2037,53.1765],[7.1905,53.1618],[7.1896,53.148],[7.1789,53.1381],[7.1829,53.1217],[7.2028,53.1133],[7.1993,53.081],[7.2128,53.011],[7.2093,53.0002],[7.1816,52.9413],[7.1047,52.8642],[7.0873,52.8499],[7.0927,52.8382],[7.072,52.8109],[7.0628,52.7107],[7.0547,52.6444],[7.0419,52.6327],[7.0062,52.6388],[6.9758,52.6463],[6.9672,52.6417],[6.94,52.638],[6.9197,52.6398],[6.8982,52.6511],[6.85,52.6488],[6.8325,52.6517],[6.8227,52.6478],[6.7835,52.6525],[6.768,52.6469],[6.742,52.6453],[6.7143,52.6268],[6.7271,52.6148],[6.7187,52.5887],[6.7667,52.5635],[6.751,52.5592],[6.7262,52.5632],[6.7161,52.5486],[6.6809,52.5533],[6.7044,52.5221],[6.6977,52.4863],[6.7531,52.4638],[6.7746,52.4596],[6.8543,52.4596],[6.8619,52.4514],[6.9417,52.4355],[6.9622,52.4446],[6.9776,52.4655],[6.994,52.4655],[7.0109,52.4291],[7.0221,52.4227],[7.0358,52.4025],[7.0588,52.3993],[7.0722,52.3734],[7.0722,52.3523],[7.0569,52.3386],[7.0468,52.3162],[7.0267,52.2922],[7.0275,52.2776],[7.0424,52.2561],[7.0659,52.2413],[7.061,52.2348],[7.039,52.2276],[7.0192,52.225],[7.0035,52.2285],[6.985,52.225],[6.9742,52.2052],[6.9513,52.181],[6.9121,52.1772],[6.9058,52.17],[6.882,52.1559],[6.8728,52.1322],[6.8554,52.1204],[6.8213,52.1182],[6.7606,52.1187],[6.7576,52.0994],[6.7445,52.0931],[6.7512,52.0855],[6.7356,52.0747],[6.7143,52.0729],[6.6968,52.0673],[6.6879,52.0524],[6.6877,52.0399],[6.7147,52.0399],[6.7526,52.0286],[6.8115,51.9981],[6.8266,51.9935],[6.8324,51.9703],[6.8285,51.9641],[6.7986,51.9588],[6.794,51.9351],[6.77,51.9162],[6.7541,51.9126],[6.7217,51.8962],[6.6923,51.9146],[6.6745,51.9159],[6.6376,51.9044],[6.5856,51.8939],[6.5561,51.8818],[6.5524,51.8862],[6.5244,51.8742],[6.501,51.867],[6.5008,51.8625],[6.4726,51.8538],[6.4511,51.8653],[6.4286,51.8651],[6.3921,51.874],[6.3881,51.862],[6.4092,51.8523],[6.4024,51.8433],[6.4078,51.8281],[6.3895,51.8333],[6.3629,51.8362],[6.3578,51.8473],[6.3468,51.8506],[6.3066,51.8492],[6.2957,51.8683],[6.2712,51.8745],[6.2618,51.8681],[6.2341,51.8701],[6.2154,51.8678],[6.1959,51.8746],[6.1819,51.8859],[6.1858,51.8927],[6.1572,51.9052],[6.1085,51.8942],[6.1374,51.8856],[6.1445,51.8699],[6.1665,51.8614],[6.1664,51.8408],[6.1436,51.8461],[6.0934,51.8509],[6.0634,51.8654],[6.0553,51.8526],[6.029,51.8451],[6.0026,51.8326],[5.987,51.8306],[5.9629,51.8368],[5.945,51.8237],[5.9578,51.8172],[5.9558,51.8101],[5.9782,51.7972],[5.9726,51.7895],[5.9877,51.783],[5.9823,51.7737],[5.9905,51.7662],[5.952,51.7491],[5.9591,51.7383],[5.9942,51.7383],[6.0291,51.7257],[6.0354,51.7177],[6.0262,51.7087],[6.0318,51.6923],[6.0298,51.6782],[6.0369,51.6728],[6.088,51.6598],[6.1182,51.6561],[6.1095,51.6468],[6.0912,51.6059],[6.1213,51.5928],[6.1306,51.5811],[6.157,51.5667],[6.177,51.5387],[6.1993,51.528],[6.2121,51.5134],[6.2128,51.4923],[6.2234,51.4749],[6.22,51.4553],[6.2139,51.4463],[6.2149,51.4344],[6.2052,51.3995],[6.2144,51.3896],[6.2244,51.365],[6.2261,51.3605],[6.1898,51.3393],[6.1686,51.3329],[6.1541,51.3074],[6.1298,51.2866],[6.1245,51.2746],[6.085,51.2474],[6.0727,51.2426],[6.0858,51.2226],[6.068,51.2205],[6.0733,51.183],[6.0823,51.1716],[6.11,51.1734],[6.131,51.1841],[6.165,51.1944],[6.1748,51.1845],[6.1388,51.1733],[6.1754,51.1585],[6.16,51.1492],[6.126,51.1451],[6.1212,51.1409],[6.0919,51.135],[6.0835,51.1239],[6.0624,51.1168],[6.0359,51.0962],[6.0099,51.091],[5.9978,51.0843],[5.971,51.0578],[5.9672,51.0443],[5.9578,51.0355],[5.9381,51.0351],[5.9132,51.0667],[5.8868,51.0521],[5.8663,51.0512],[5.878,51.0375],[5.8792,51.0176],[5.8958,51.011],[5.9055,51.0022],[5.9038,50.9875],[5.8927,50.9803],[5.9047,50.9745],[5.9336,50.9853],[5.9552,50.9884],[5.9682,50.9795],[6.0174,50.9834],[6.0269,50.9816],[6.0156,50.9627],[6.0182,50.9344],[6.093,50.9185],[6.0869,50.9131],[6.0753,50.891],[6.0882,50.8724],[6.0773,50.8607],[6.074,50.8468],[6.0572,50.8556],[6.0189,50.8463],[6.0159,50.8388],[6.0248,50.828],[6.0251,50.8142],[6.0035,50.8013],[5.9855,50.8106],[5.9749,50.798],[5.988,50.7941],[6.0106,50.7801],[6.0278,50.7737],[6.0183,50.7632],[6.0214,50.7531],[6.0405,50.7455],[6.0343,50.7334],[6.0496,50.7261],[6.0732,50.721],[6.1107,50.7229],[6.1192,50.7197],[6.1232,50.7071],[6.1393,50.6936],[6.1454,50.6813],[6.1648,50.6633],[6.188,50.6651],[6.1961,50.6621],[6.1971,50.6567],[6.1863,50.642],[6.2107,50.6406],[6.2243,50.6433],[6.2287,50.6498],[6.2356,50.6488],[6.2484,50.6414],[6.2656,50.6427],[6.274,50.6305],[6.2691,50.6192],[6.2499,50.6054],[6.2412,50.5871],[6.2368,50.5663],[6.2273,50.556],[6.2125,50.5543],[6.197,50.531],[6.2077,50.5234],[6.2102,50.5131],[6.2307,50.4975],[6.2517,50.5035],[6.2699,50.5045],[6.2975,50.4976],[6.3156,50.497],[6.3313,50.4927],[6.3409,50.4825],[6.3405,50.4622],[6.3629,50.4539],[6.3718,50.4556],[6.3776,50.4394],[6.3667,50.4192],[6.37,50.4098],[6.3569,50.3911],[6.3422,50.38],[6.3606,50.3715],[6.3763,50.3552],[6.3975,50.3462],[6.4079,50.3351],[6.405,50.3233],[6.3826,50.322],[6.3751,50.3138],[6.3359,50.3175],[6.3273,50.3245],[6.3055,50.3176],[6.2854,50.286],[6.2921,50.2788],[6.2779,50.2664],[6.2587,50.2678],[6.2455,50.2619],[6.2187,50.2563],[6.2003,50.2398],[6.1755,50.2351],[6.1777,50.2167],[6.1856,50.2033],[6.1875,50.1789],[6.1469,50.1778],[6.1475,50.1606],[6.1547,50.1419],[6.1388,50.135],[6.1281,50.1162],[6.1332,50.1025],[6.1195,50.0896],[6.1219,50.0692],[6.1124,50.0605],[6.1343,50.0394],[6.1302,50.0293],[6.1459,50.0227],[6.1391,50.0108],[6.1494,50.0063],[6.1426,49.9947],[6.1695,49.9842],[6.1648,49.9737],[6.1773,49.9547],[6.2059,49.9552],[6.2273,49.9366],[6.2262,49.9294],[6.234,49.9],[6.2461,49.8956],[6.2621,49.8809],[6.311,49.8699],[6.3227,49.8507],[6.3205,49.8397],[6.3379,49.8407],[6.3401,49.8482],[6.3642,49.8508],[6.3974,49.8223],[6.4259,49.8157],[6.432,49.8106],[6.4545,49.8115],[6.475,49.8213],[6.4888,49.8119],[6.505,49.8096],[6.5216,49.8132],[6.5308,49.8056],[6.5079,49.7919],[6.5168,49.7818],[6.5098,49.7742],[6.5184,49.7617],[6.5005,49.7521],[6.5016,49.7347],[6.4951,49.7247],[6.506,49.7168],[6.4793,49.6964],[6.4581,49.6901],[6.4473,49.6782],[6.4266,49.6648],[6.4408,49.6559],[6.4223,49.6213],[6.4023,49.6045],[6.3846,49.5993],[6.3744,49.5911],[6.3815,49.5814],[6.3596,49.5754],[6.359,49.5703],[6.3801,49.5595],[6.3801,49.5511],[6.3579,49.533],[6.3656,49.5092],[6.369,49.4881],[6.3671,49.4695],[6.3934,49.4641],[6.4291,49.4762],[6.4405,49.4667],[6.4628,49.465],[6.4863,49.4516],[6.4994,49.4504],[6.5248,49.4354],[6.5344,49.4353],[6.557,49.4192],[6.5373,49.4094],[6.5408,49.4013],[6.5636,49.3881],[6.5768,49.3898],[6.5873,49.3844],[6.5831,49.3684],[6.6022,49.3671],[6.5897,49.3511],[6.5741,49.3587],[6.565,49.3494],[6.5956,49.3301],[6.5891,49.3221],[6.6048,49.3121],[6.661,49.2825],[6.6678,49.271],[6.6604,49.2612],[6.6907,49.2478],[6.6854,49.243],[6.6958,49.2153],[6.7235,49.2188],[6.7314,49.206],[6.7112,49.1883],[6.7203,49.1753],[6.7386,49.1637],[6.78,49.1684],[6.8341,49.1511],[6.8475,49.1572],[6.8444,49.1731],[6.8618,49.1788],[6.8505,49.1934],[6.8524,49.1995],[6.8363,49.2113],[6.8589,49.2228],[6.8732,49.2148],[6.8933,49.2091],[6.9115,49.2151],[6.9187,49.2227],[6.9381,49.2224],[6.9399,49.2167],[6.9596,49.2031],[6.9752,49.2095],[7.0108,49.188],[7.035,49.1914],[7.0285,49.1758],[7.0333,49.1549],[7.0468,49.1354],[7.0442,49.1202],[7.0517,49.113],[7.0666,49.1142],[7.0718,49.1243],[7.0894,49.1302],[7.0813,49.1492],[7.1011,49.156],[7.1247,49.142],[7.1362,49.1283],[7.1558,49.1214],[7.1836,49.13],[7.1963,49.1217],[7.2451,49.1301],[7.2657,49.1227],[7.2838,49.1234],[7.2984,49.1173],[7.3155,49.1385],[7.3298,49.1448],[7.3627,49.1431],[7.3614,49.1534],[7.3688,49.1615],[7.3651,49.1718],[7.3793,49.1749],[7.4359,49.1797],[7.4577,49.163],[7.4673,49.1673],[7.494,49.1694],[7.4932,49.1606],[7.5064,49.1547],[7.4967,49.1354],[7.5055,49.1224],[7.5155,49.121],[7.5287,49.0971],[7.5498,49.0858],[7.5691,49.0795],[7.601,49.0832],[7.6308,49.0726],[7.6312,49.0549],[7.6734,49.0451],[7.6923,49.0489],[7.6959,49.0578],[7.7202,49.0516],[7.7314,49.0555],[7.7407,49.0473],[7.7693,49.0476],[7.7763,49.0565],[7.7944,49.0657],[7.8157,49.055],[7.8516,49.0423],[7.8668,49.0329],[7.8891,49.049],[7.9107,49.0451],[7.923,49.0437],[7.9318,49.0581],[7.9451,49.0554],[7.949,49.0472],[7.9644,49.0429],[7.9745,49.0272],[7.994,49.029],[8.0138,49.021],[8.05,49.0138],[8.0684,48.9993],[8.0701,48.9963],[8.1254,48.9847],[8.1535,48.9771],[8.1706,48.979],[8.1944,48.9771],[8.1993,48.9669],[8.2226,48.9759],[8.2326,48.9666],[8.2029,48.9598],[8.1936,48.954],[8.1792,48.9346],[8.1558,48.9123],[8.1352,48.8875],[8.1108,48.8421],[8.1038,48.8201],[8.0943,48.8083],[8.0722,48.7924],[8.0589,48.7889],[8.0416,48.7908],[8.0258,48.7822],[8.0236,48.7697],[8.0078,48.7592],[7.9804,48.7609],[7.9672,48.7467],[7.967,48.7263],[7.9596,48.7186],[7.89,48.6626],[7.8481,48.6469],[7.838,48.6389],[7.8303,48.6199],[7.8048,48.5926],[7.8002,48.5787],[7.8054,48.5611],[7.8035,48.5383],[7.8061,48.5164],[7.7919,48.5002],[7.7669,48.4871],[7.766,48.4605],[7.7617,48.4485],[7.7358,48.4039],[7.7319,48.3764],[7.7456,48.3325],[7.7316,48.3172],[7.7104,48.3116],[7.6916,48.2991],[7.6892,48.2808],[7.6807,48.2573],[7.6685,48.2255],[7.661,48.2168],[7.6441,48.2073],[7.6295,48.1837],[7.6018,48.1592],[7.6002,48.1388],[7.5783,48.1223],[7.5773,48.1157],[7.579,48.0998],[7.5692,48.08],[7.5739,48.0549],[7.5685,48.0352],[7.5717,48.0304],[7.6035,48.0052],[7.6134,47.9947],[7.6217,47.9765],[7.6209,47.969],[7.6096,47.9542],[7.588,47.9371],[7.5811,47.9268],[7.5829,47.9034],[7.5798,47.8949],[7.5589,47.8818],[7.556,47.867],[7.5629,47.8538],[7.5629,47.8427],[7.5489,47.8213],[7.5321,47.7878],[7.5334,47.766],[7.546,47.7436],[7.5476,47.7298],[7.534,47.7142],[7.5177,47.7051],[7.5123,47.6949],[7.5189,47.6847],[7.5211,47.6638],[7.5379,47.6492],[7.5674,47.6317],[7.5743,47.6158],[7.593,47.6008],[7.5892,47.5897],[7.6193,47.5769],[7.6458,47.5969],[7.6672,47.592],[7.6807,47.5827],[7.6837,47.574],[7.6701,47.5659],[7.6481,47.5599],[7.6492,47.5482],[7.6676,47.5362],[7.6964,47.5328],[7.7191,47.5418],[7.7457,47.5439],[7.7961,47.5577],[7.8098,47.5682],[7.8192,47.5872],[7.8408,47.5822],[7.8618,47.5878],[7.8941,47.5864],[7.9109,47.571],[7.9078,47.5618],[7.9171,47.5478],[7.9483,47.5451],[7.9532,47.5553],[7.9992,47.5566],[8.0225,47.5505],[8.0466,47.5555],[8.0704,47.5644],[8.0913,47.5582],[8.1002,47.5638],[8.1031,47.5764],[8.1117,47.5833],[8.1352,47.5836],[8.1464,47.5946],[8.1668,47.5951],[8.1864,47.6063],[8.2041,47.6209],[8.2376,47.6123],[8.259,47.6153],[8.265,47.6095],[8.2801,47.6117],[8.2975,47.6057],[8.2979,47.5891],[8.3284,47.5712],[8.3847,47.5664],[8.396,47.577],[8.4287,47.5669],[8.4379,47.5672],[8.4942,47.5823],[8.4887,47.5878],[8.4669,47.5842],[8.457,47.5973],[8.4831,47.6138],[8.5083,47.6175],[8.5156,47.6338],[8.5389,47.6309],[8.5573,47.6246],[8.5709,47.6125],[8.5616,47.6013],[8.5825,47.5961],[8.6042,47.6122],[8.5957,47.6431],[8.6103,47.6515],[8.6275,47.6537],[8.6079,47.6646],[8.6066,47.6721],[8.5781,47.6616],[8.5605,47.6704],[8.527,47.6604],[8.534,47.6496],[8.4661,47.6428],[8.4536,47.6548],[8.4451,47.6538],[8.4237,47.6668],[8.4124,47.6663],[8.4056,47.6745],[8.4206,47.6839],[8.4044,47.6981],[8.4168,47.71],[8.4426,47.7217],[8.454,47.7235],[8.4498,47.7386],[8.4745,47.765],[8.489,47.7733],[8.5102,47.7762],[8.5232,47.7757],[8.5526,47.7846],[8.566,47.7783],[8.575,47.7896],[8.5755,47.8017],[8.6139,47.8012],[8.622,47.7947],[8.6151,47.7832],[8.6233,47.7773],[8.6194,47.7677],[8.6316,47.7582],[8.6423,47.7653],[8.6499,47.7813],[8.6453,47.7872],[8.657,47.8003],[8.6676,47.7877],[8.6816,47.7835],[8.6886,47.7583],[8.6951,47.7557],[8.7142,47.7654],[8.7271,47.7623],[8.7398,47.7531],[8.7234,47.7455],[8.7113,47.7301],[8.7179,47.7216],[8.7332,47.7184],[8.728,47.6927],[8.7525,47.6905],[8.7902,47.6751],[8.7965,47.6878],[8.7977,47.7029],[8.7694,47.7069],[8.7698,47.7181],[8.7807,47.7217],[8.7966,47.7346],[8.8075,47.7371],[8.8128,47.7237],[8.8236,47.7109],[8.8336,47.7146],[8.8547,47.7049],[8.8576,47.6927],[8.8505,47.6845],[8.8735,47.6702],[8.8754,47.6562],[8.8937,47.6522],[8.9391,47.6617],[8.9983,47.6869],[9.0059,47.6968],[8.9923,47.7071],[8.9728,47.7115],[8.9426,47.724],[8.9472,47.7357],[8.9753,47.735],[8.9945,47.7272],[9.0015,47.7377],[9.1016,47.7017],[9.107,47.6906],[9.0878,47.688],[9.0604,47.7034],[9.0429,47.7015],[9.0433,47.6934],[9.0811,47.6833],[9.0926,47.6864],[9.1131,47.685],[9.1393,47.664],[9.1577,47.666],[9.1697,47.6561],[9.1784,47.667],[9.2073,47.6632],[9.2178,47.6667],[9.2114,47.6824],[9.1796,47.7052],[9.178,47.7256],[9.1491,47.7487],[9.1363,47.7471],[9.1183,47.7583],[9.0923,47.7664],[9.0663,47.7799],[9.0482,47.7957],[9.0305,47.8065],[9.0395,47.8175],[9.0621,47.8147],[9.0705,47.8073],[9.1244,47.7824],[9.1393,47.769],[9.1517,47.7679],[9.1924,47.7508],[9.2248,47.7403],[9.2278,47.7241],[9.2393,47.7101],[9.2634,47.6948],[9.3127,47.6735],[9.324,47.6722],[9.3493,47.661],[9.3988,47.6684],[9.4221,47.6654],[9.4342,47.6572],[9.461,47.6511],[9.4953,47.6501],[9.5151,47.635],[9.5182,47.6214],[9.5293,47.6038],[9.5503,47.5877],[9.572,47.5842],[9.5955,47.5881],[9.6021,47.5843],[9.6079,47.5723],[9.6272,47.5711],[9.6578,47.5564],[9.6725,47.5578],[9.6919,47.5499],[9.7127,47.5507],[9.731,47.5339],[9.7483,47.5708],[9.7666,47.5891],[9.7768,47.5952],[9.8024,47.5959],[9.8272,47.58],[9.8208,47.5707],[9.8259,47.5598],[9.8157,47.5476],[9.8535,47.5399],[9.875,47.5292],[9.8817,47.5481],[9.902,47.5442],[9.9207,47.5297],[9.944,47.537],[9.959,47.5346],[9.9678,47.5462],[9.9654,47.5208],[9.9957,47.5029],[9.9877,47.4986],[10.0014,47.4822],[10.0227,47.484],[10.0376,47.4888],[10.0546,47.4744],[10.0536,47.4666],[10.0704,47.456],[10.0945,47.4516],[10.0946,47.4395],[10.1054,47.4287],[10.0938,47.417],[10.0736,47.4144],[10.0704,47.4079],[10.0861,47.3996],[10.0829,47.3937],[10.0998,47.3547],[10.1193,47.3757],[10.1376,47.3679],[10.1695,47.3713],[10.1692,47.3858],[10.1948,47.3893],[10.1993,47.3836],[10.2182,47.3824],[10.227,47.3888],[10.237,47.3735],[10.2042,47.3367],[10.1995,47.3266],[10.2111,47.3189],[10.2077,47.3039],[10.1895,47.2939],[10.1787,47.2957],[10.172,47.279],[10.174,47.2703],[10.2013,47.2769],[10.2222,47.2758],[10.2323,47.2705],[10.2423,47.2781],[10.2599,47.2816],[10.2688,47.2883],[10.2815,47.2875],[10.315,47.3065],[10.33,47.3047],[10.3465,47.3151],[10.3568,47.337],[10.3863,47.3562],[10.3887,47.3691],[10.3974,47.3769],[10.431,47.3838],[10.4312,47.4019],[10.4386,47.4136],[10.4554,47.4191],[10.4591,47.4282],[10.4759,47.4321],[10.4664,47.4514],[10.4702,47.4684],[10.4632,47.4828],[10.4402,47.4866],[10.4313,47.5037],[10.4406,47.5136],[10.4389,47.5235],[10.4545,47.5557],[10.4727,47.5509],[10.4889,47.5404],[10.5245,47.5352],[10.5591,47.5372],[10.5734,47.5339],[10.582,47.5483],[10.5806,47.5557],[10.598,47.5697],[10.619,47.5669],[10.6354,47.559],[10.6874,47.5582],[10.6948,47.5446],[10.7183,47.5381],[10.7505,47.5373],[10.764,47.5282],[10.7638,47.5197],[10.7776,47.5139],[10.7954,47.5212],[10.828,47.5284],[10.8385,47.5255],[10.8535,47.5346],[10.8863,47.5367],[10.9009,47.521],[10.915,47.5128],[10.8765,47.5028],[10.8702,47.4991],[10.871,47.4819],[10.8813,47.4793],[10.9101,47.4855],[10.9383,47.4798],[10.9281,47.4719],[10.9512,47.4563],[10.9836,47.43],[10.9848,47.421],[10.9723,47.4175],[10.9703,47.4],[11.0058,47.3941],[11.0241,47.397],[11.0491,47.394],[11.0615,47.3966],[11.0996,47.3943],[11.1155,47.3956],[11.1292,47.4128],[11.1797,47.4262],[11.1982,47.4275],[11.2052,47.4338],[11.2261,47.4309],[11.25,47.4323],[11.2534,47.4282],[11.2327,47.4111],[11.2224,47.3973],[11.2628,47.3993],[11.2729,47.3979],[11.29,47.4074],[11.2911,47.4272],[11.311,47.4302],[11.3362,47.4487],[11.3755,47.4491],[11.3884,47.4464],[11.4155,47.447],[11.4073,47.4667],[11.3902,47.4669],[11.3838,47.4722],[11.3917,47.4825],[11.4102,47.4953],[11.4217,47.5061],[11.4417,47.5176],[11.4542,47.5087],[11.4876,47.509],[11.5125,47.5064],[11.5183,47.511],[11.5399,47.5095],[11.5688,47.5136],[11.588,47.5254],[11.5858,47.5456],[11.5905,47.5598],[11.601,47.5683],[11.605,47.5798],[11.6329,47.5924],[11.6412,47.5936],[11.6581,47.5841],[11.6813,47.5838],[11.6975,47.5886],[11.745,47.5877],[11.781,47.5912],[11.79,47.5877],[11.8294,47.5821],[11.8473,47.5823],[11.8549,47.6023],[11.8651,47.6019],[11.9027,47.6084],[11.9137,47.6138],[11.9331,47.6128],[12.0128,47.6232],[12.0194,47.6119],[12.0371,47.6176],[12.0607,47.6187],[12.0824,47.6097],[12.1152,47.6114],[12.1398,47.6053],[12.1617,47.613],[12.179,47.6144],[12.1875,47.6049],[12.2059,47.6081],[12.2079,47.6148],[12.1988,47.6414],[12.183,47.6667],[12.1669,47.6838],[12.1626,47.7011],[12.1839,47.7004],[12.1977,47.7088],[12.2266,47.7183],[12.2496,47.7414],[12.2649,47.7325],[12.2469,47.7108],[12.2412,47.6941],[12.2552,47.6793],[12.2632,47.6782],[12.2775,47.6879],[12.338,47.6971],[12.357,47.6905],[12.3637,47.6838],[12.4,47.692],[12.4292,47.6962],[12.443,47.6918],[12.4389,47.6761],[12.4528,47.6678],[12.4651,47.6496],[12.4911,47.637],[12.4992,47.625],[12.512,47.6253],[12.5363,47.6365],[12.575,47.6323],[12.5828,47.6475],[12.603,47.672],[12.6291,47.676],[12.6388,47.671],[12.6549,47.6721],[12.6661,47.6808],[12.6959,47.6822],[12.7152,47.6763],[12.7318,47.6796],[12.7447,47.6757],[12.7559,47.6664],[12.7733,47.6663],[12.7784,47.6608],[12.759,47.6509],[12.7807,47.6328],[12.7895,47.6334],[12.8107,47.6213],[12.8133,47.612],[12.7915,47.5975],[12.7953,47.5933],[12.7815,47.5825],[12.7843,47.5688],[12.8038,47.5499],[12.8177,47.5449],[12.8476,47.546],[12.8501,47.5327],[12.8572,47.527],[12.8804,47.5219],[12.8863,47.5123],[12.9087,47.497],[12.9638,47.4752],[12.9856,47.4815],[13.0011,47.4639],[13.022,47.4777],[13.0269,47.4867],[13.0475,47.4921],[13.0463,47.524],[13.0317,47.5356],[13.0557,47.5573],[13.0427,47.5738],[13.0436,47.5834],[13.0719,47.5884],[13.063,47.6021],[13.0956,47.628],[13.097,47.6407],[13.0772,47.6694],[13.0802,47.6864],[13.0608,47.6971],[13.0439,47.7138],[13.0083,47.7223],[13.002,47.7132],[12.9871,47.7074],[12.9567,47.7078],[12.9468,47.7121],[12.9331,47.7095],[12.9134,47.7171],[12.9047,47.7272],[12.9213,47.7441],[12.931,47.7456],[12.9448,47.7646],[12.94,47.7791],[12.9641,47.7999],[12.9871,47.8306],[13.004,47.8447],[13.0009,47.8548],[12.9806,47.8779],[12.963,47.9051],[12.9464,47.9218],[12.9388,47.9387],[12.9221,47.9394],[12.9209,47.9518],[12.9133,47.9566],[12.8758,47.9626],[12.8671,47.9753],[12.8573,48.0075],[12.8325,48.0291],[12.7682,48.0675],[12.7527,48.0882],[12.7516,48.1128],[12.7585,48.1266],[12.7872,48.1238],[12.7977,48.1445],[12.8109,48.1513],[12.8264,48.1525],[12.8352,48.1639],[12.8477,48.1675],[12.8709,48.2019],[12.9134,48.2062],[12.9447,48.2067],[12.962,48.2118],[13.0034,48.2411],[13.0102,48.2503],[13.0245,48.2587],[13.0524,48.2647],[13.0783,48.2765],[13.1315,48.2792],[13.177,48.2944],[13.1914,48.2956],[13.2498,48.2929],[13.2614,48.295],[13.3251,48.3209],[13.3531,48.3404],[13.3679,48.3533],[13.4059,48.371],[13.4176,48.3838],[13.4232,48.407],[13.4383,48.429],[13.438,48.4401],[13.427,48.4553],[13.4471,48.4922],[13.4567,48.5143],[13.4465,48.5232],[13.4487,48.5396],[13.4384,48.5489],[13.4385,48.5582],[13.4501,48.564],[13.4637,48.554],[13.4754,48.5561],[13.5069,48.5764],[13.5134,48.591],[13.5306,48.5854],[13.5423,48.5757],[13.5658,48.5625],[13.5782,48.5596],[13.5995,48.5694],[13.6258,48.554],[13.6546,48.5478],[13.6628,48.5349],[13.6853,48.5287],[13.7066,48.5173],[13.7274,48.513],[13.735,48.5261],[13.7456,48.5283],[13.7437,48.5441],[13.7541,48.5638],[13.7679,48.5541],[13.7905,48.5719],[13.8005,48.5734],[13.8072,48.5847],[13.8081,48.5997],[13.8159,48.6144],[13.8252,48.6179],[13.8231,48.6427],[13.8145,48.6493],[13.8191,48.6753],[13.8153,48.6939],[13.8199,48.6994],[13.7961,48.7136],[13.8108,48.7291],[13.8177,48.7309],[13.823,48.7566],[13.8361,48.7627],[13.8393,48.7707],[13.8132,48.774],[13.8039,48.7811],[13.8153,48.7969],[13.7957,48.815],[13.7902,48.831],[13.7739,48.8306],[13.7501,48.8583],[13.7437,48.8757],[13.7273,48.883],[13.7161,48.8782],[13.7026,48.8817],[13.6891,48.8784],[13.6716,48.8801],[13.6696,48.8903],[13.6552,48.8935],[13.638,48.9257],[13.6223,48.939],[13.6055,48.9417],[13.5907,48.9528],[13.5855,48.9685],[13.5633,48.9705],[13.5435,48.9683],[13.5292,48.9741],[13.5071,48.9691],[13.5083,48.9422],[13.4956,48.9413],[13.4836,48.9513],[13.4694,48.9544],[13.4602,48.9622],[13.4431,48.9658],[13.4167,48.98],[13.4029,48.9873],[13.4093,49.0031],[13.4003,49.0162],[13.4031,49.0265],[13.3923,49.0543],[13.3759,49.0584],[13.344,49.0889],[13.3278,49.0962],[13.2892,49.1186],[13.2764,49.1205],[13.2364,49.1136],[13.2057,49.1221],[13.1703,49.144],[13.1769,49.1642],[13.1709,49.1736],[13.1619,49.1746],[13.1293,49.1969],[13.11,49.2032],[13.1131,49.2192],[13.086,49.2294],[13.0808,49.2474],[13.0578,49.2532],[13.05,49.2649],[13.0339,49.2639],[13.0257,49.2789],[13.0306,49.2876],[13.0291,49.3043],[13.0106,49.3053],[12.9726,49.3339],[12.95,49.3429],[12.9199,49.3434],[12.9066,49.3485],[12.8802,49.3505],[12.8889,49.333],[12.8768,49.3324],[12.8479,49.3443],[12.837,49.3407],[12.8025,49.3416],[12.7788,49.3481],[12.7823,49.3592],[12.7581,49.3752],[12.7576,49.3948],[12.7329,49.4099],[12.7147,49.414],[12.7087,49.4247],[12.6792,49.4263],[12.6559,49.4345],[12.658,49.4505],[12.6485,49.4683],[12.6338,49.4762],[12.6439,49.4844],[12.6399,49.499],[12.6443,49.523],[12.6017,49.5325],[12.5938,49.5422],[12.5742,49.5594],[12.5713,49.5685],[12.5771,49.5863],[12.5642,49.5962],[12.5637,49.6059],[12.546,49.6213],[12.5282,49.6182],[12.5179,49.6435],[12.5298,49.6662],[12.5216,49.6868],[12.4852,49.6879],[12.4809,49.695],[12.4403,49.7058],[12.4257,49.7305],[12.4064,49.7395],[12.4015,49.7584],[12.4032,49.7619],[12.467,49.7854],[12.4733,49.8151],[12.4729,49.8336],[12.4826,49.8417],[12.498,49.8376],[12.4978,49.8569],[12.5107,49.8584],[12.5219,49.8817],[12.54,49.8912],[12.5506,49.9026],[12.5477,49.9203],[12.5385,49.9248],[12.5122,49.9276],[12.4784,49.9357],[12.4705,49.949],[12.4906,49.9586],[12.4939,49.9698],[12.4899,49.9818],[12.4765,49.9808],[12.4607,49.9949],[12.4352,49.9938],[12.4244,50.0008],[12.3674,50.0194],[12.3376,50.0399],[12.3289,50.0322],[12.3192,50.0488],[12.2991,50.0587],[12.2832,50.0564],[12.2609,50.0584],[12.2666,50.0784],[12.2462,50.0923],[12.2311,50.0944],[12.2295,50.1017],[12.209,50.1024],[12.1996,50.1117],[12.1945,50.1377],[12.2112,50.1588],[12.2013,50.1888],[12.1902,50.2008],[12.1619,50.2118],[12.1607,50.2198],[12.1585,50.2265],[12.1089,50.2379],[12.0991,50.2624],[12.1384,50.2753],[12.1196,50.2994],[12.126,50.3072],[12.1009,50.318],[12.1254,50.3154],[12.1509,50.3221],[12.1845,50.3223],[12.1868,50.3117],[12.1983,50.3074],[12.1956,50.2932],[12.2016,50.2894],[12.2015,50.2728],[12.2132,50.2702],[12.2537,50.2711],[12.2653,50.2582],[12.251,50.256],[12.2393,50.2472],[12.2669,50.2319],[12.2746,50.2333],[12.2939,50.2213],[12.2837,50.2148],[12.2875,50.2029],[12.2748,50.197],[12.2893,50.1861],[12.2949,50.1747],[12.3192,50.1719],[12.3382,50.1925],[12.326,50.2019],[12.3268,50.2181],[12.3324,50.2385],[12.3478,50.2379],[12.3588,50.2437],[12.3501,50.2535],[12.3595,50.2735],[12.3709,50.2853],[12.3943,50.2896],[12.403,50.3007],[12.398,50.3212],[12.4371,50.3276],[12.4418,50.3412],[12.4694,50.355],[12.4816,50.347],[12.4922,50.3546],[12.4864,50.3698],[12.5125,50.3962],[12.5584,50.3994],[12.5838,50.4071],[12.6029,50.4065],[12.617,50.4156],[12.6455,50.4108],[12.6731,50.4169],[12.7071,50.3973],[12.7076,50.4078],[12.7298,50.4217],[12.7346,50.4322],[12.7949,50.4494],[12.7998,50.4426],[12.8171,50.4501],[12.8201,50.4598],[12.9412,50.4107],[12.9858,50.421],[12.9954,50.4333],[13.0166,50.4439],[13.0239,50.4541],[13.0188,50.4668],[13.0234,50.4883],[13.0428,50.5114],[13.056,50.5013],[13.0766,50.5001],[13.1015,50.5029],[13.1327,50.5183],[13.1367,50.5064],[13.1534,50.5085],[13.1781,50.5029],[13.1969,50.5046],[13.1959,50.5165],[13.228,50.5485],[13.2259,50.5662],[13.2336,50.5791],[13.2477,50.591],[13.2788,50.593],[13.2909,50.575],[13.3229,50.5813],[13.3196,50.6016],[13.342,50.6126],[13.3674,50.6188],[13.3774,50.6273],[13.3722,50.6489],[13.4025,50.635],[13.4122,50.6194],[13.4305,50.6104],[13.4411,50.6111],[13.4611,50.6036],[13.4927,50.6235],[13.5018,50.6336],[13.5242,50.6393],[13.514,50.6558],[13.5444,50.6774],[13.5391,50.6914],[13.5252,50.7044],[13.5599,50.7147],[13.6023,50.7101],[13.6269,50.7159],[13.6247,50.7218],[13.6522,50.7304],[13.6666,50.7319],[13.6874,50.7199],[13.7079,50.7171],[13.7282,50.7337],[13.7404,50.7272],[13.7583,50.7358],[13.7713,50.733],[13.8094,50.7324],[13.8271,50.7242],[13.8575,50.7282],[13.8682,50.7426],[13.878,50.7382],[13.8969,50.7433],[13.9006,50.7518],[13.8876,50.7711],[13.904,50.794],[13.9184,50.7891],[13.9392,50.79],[13.9558,50.8006],[13.9538,50.8073],[13.9908,50.8199],[14.0347,50.805],[14.0411,50.8108],[14.0784,50.8124],[14.0906,50.8262],[14.1329,50.834],[14.1615,50.8475],[14.2039,50.8522],[14.2233,50.8592],[14.2352,50.8743],[14.2363,50.8826],[14.2675,50.8953],[14.2891,50.8862],[14.3059,50.8843],[14.3482,50.8926],[14.3496,50.8992],[14.3741,50.8962],[14.3876,50.8991],[14.3866,50.915],[14.4018,50.9237],[14.401,50.9333],[14.3882,50.9415],[14.3746,50.9382],[14.3474,50.948],[14.3117,50.9538],[14.3169,50.9607],[14.313,50.9723],[14.327,50.9724],[14.3297,50.9822],[14.3114,50.9847],[14.2822,50.9777],[14.2629,50.9854],[14.2585,50.9921],[14.2652,51.0082],[14.2777,51.0188],[14.2894,51.0397],[14.3019,51.055],[14.3179,51.0547],[14.335,51.0397],[14.362,51.0454],[14.3826,51.0386],[14.3832,51.0285],[14.4084,51.0188],[14.4218,51.0196],[14.4538,51.0359],[14.4655,51.0353],[14.4744,51.0255],[14.4927,51.0234],[14.4912,51.0435],[14.5082,51.0419],[14.4986,51.0221],[14.5253,51.0185],[14.5399,51.0104],[14.5787,51.0003],[14.5813,50.9935],[14.5992,50.9871],[14.5961,50.9628],[14.5807,50.9419],[14.5607,50.9254],[14.5648,50.9184],[14.5832,50.9143],[14.6171,50.9255],[14.6502,50.9315],[14.6529,50.9055],[14.6362,50.8974],[14.6319,50.8833],[14.6187,50.8646],[14.6189,50.8577],[14.6483,50.8487],[14.6648,50.8494],[14.6902,50.838],[14.7087,50.8409],[14.7267,50.8225],[14.7388,50.8288],[14.7664,50.8193],[14.8,50.8228],[14.8102,50.8508],[14.8251,50.8693],[14.8196,50.8851],[14.8434,50.9007],[14.8527,50.9111],[14.8672,50.9172],[14.8753,50.9308],[14.8966,50.9406],[14.8931,50.9501],[14.904,50.9675],[14.9181,50.9742],[14.9203,50.9879],[14.9349,51.0062],[14.9391,51.0235],[14.9472,51.028],[14.9483,51.0402],[14.9647,51.0504],[14.9679,51.0714],[14.9839,51.0974],[14.9785,51.1068],[14.9835,51.1179],[14.9965,51.1209],[14.991,51.1413],[15.0007,51.1495],[14.9937,51.1631],[15.0088,51.1823],[15.0137,51.1954],[15.0076,51.2045],[15.0183,51.2211],[15.0166,51.228],[15.0374,51.244],[15.0295,51.2514],[15.0382,51.2592],[15.0335,51.2939],[15.013,51.3008],[15.0096,51.315],[14.9931,51.323],[14.9778,51.3417],[14.9742,51.364],[14.9836,51.3741],[14.9649,51.3861],[14.9635,51.4073],[14.9663,51.4262],[14.9738,51.4423],[14.9559,51.4585],[14.947,51.4721],[14.9274,51.4731],[14.9224,51.4823],[14.8978,51.4821],[14.8884,51.4875],[14.8716,51.4847],[14.8528,51.4893],[14.7968,51.5175],[14.7665,51.5189],[14.7358,51.526],[14.7266,51.5402],[14.7293,51.5497],[14.7112,51.5627],[14.7299,51.5818],[14.7421,51.593],[14.762,51.6034],[14.7656,51.6117],[14.7541,51.6268],[14.7577,51.6602],[14.736,51.6888],[14.7245,51.6905],[14.6909,51.7083],[14.6761,51.7236],[14.6681,51.7258],[14.6566,51.7405],[14.6636,51.756],[14.6508,51.7613],[14.6551,51.7736],[14.6463,51.7943],[14.6347,51.8006],[14.6082,51.8035],[14.591,51.8199],[14.5906,51.8387],[14.6059,51.8426],[14.6116,51.8574],[14.623,51.8578],[14.6526,51.8744],[14.6557,51.8847],[14.6734,51.8895],[14.6945,51.9025],[14.6913,51.9081],[14.7054,51.9242],[14.7034,51.9308],[14.7196,51.9429],[14.7208,51.953],[14.7072,51.9657],[14.7213,51.9962],[14.7167,52.0012],[14.7267,52.0139],[14.7408,52.0228],[14.7497,52.0411],[14.7452,52.0538],[14.7584,52.0674],[14.7413,52.0852],[14.7243,52.0935],[14.7003,52.0981],[14.6858,52.1094],[14.6791,52.142],[14.7031,52.1643],[14.7053,52.1735],[14.6881,52.1893],[14.6885,52.1989],[14.705,52.208],[14.7117,52.2192],[14.7145,52.237],[14.6902,52.2566],[14.6465,52.2626],[14.6171,52.2715],[14.6009,52.2721],[14.576,52.2884],[14.5852,52.3051],[14.5746,52.3228],[14.5609,52.3307],[14.5631,52.3381],[14.5536,52.3499],[14.5509,52.3765],[14.5344,52.395],[14.5457,52.4111],[14.5455,52.4287],[14.5551,52.4374],[14.5778,52.441],[14.6101,52.4652],[14.6118,52.4744],[14.6316,52.4884],[14.6317,52.5018],[14.616,52.5081],[14.605,52.5276],[14.6185,52.5569],[14.6394,52.5689],[14.638,52.5744],[14.6137,52.5866],[14.6082,52.5996],[14.5962,52.6107],[14.572,52.6218],[14.5053,52.6434],[14.4711,52.6578],[14.4529,52.6772],[14.4313,52.6829],[14.424,52.6962],[14.3837,52.7256],[14.3735,52.7367],[14.3609,52.7406],[14.3525,52.7507],[14.3217,52.7626],[14.2804,52.7737],[14.2301,52.805],[14.2175,52.8169],[14.1524,52.8242],[14.1301,52.8283],[14.123,52.844],[14.1298,52.8527],[14.1587,52.8761],[14.1566,52.8956],[14.1426,52.9332],[14.1388,52.9518],[14.1437,52.9614],[14.1622,52.9653],[14.1679,52.9727],[14.2094,52.9882],[14.2356,52.9932],[14.2916,53.02],[14.3123,53.0355],[14.338,53.0466],[14.3524,53.0589],[14.3662,53.0794],[14.3702,53.1046],[14.3783,53.1116],[14.3832,53.137],[14.3877,53.143],[14.3737,53.1543],[14.3663,53.172],[14.3773,53.2017],[14.4059,53.2108],[14.4085,53.2232],[14.4337,53.2421],[14.4496,53.2594],[14.4443,53.2724],[14.4212,53.2761],[14.415,53.3019],[14.4068,53.3087],[14.4155,53.3243],[14.4124,53.3296],[14.4055,53.3471],[14.3903,53.3537],[14.3953,53.3694],[14.3892,53.3878],[14.3733,53.409],[14.3686,53.4326],[14.3713,53.4564],[14.358,53.4573],[14.3506,53.496],[14.3269,53.5038],[14.3157,53.5251],[14.3159,53.5369],[14.3026,53.5534],[14.314,53.5652],[14.3118,53.5794],[14.3169,53.6181],[14.2838,53.6344],[14.2846,53.6588],[14.2709,53.6669],[14.2837,53.6825],[14.2677,53.6975],[14.2454,53.6937],[14.2224,53.6982],[14.2216,53.7101],[14.2512,53.7195],[14.2717,53.7393],[14.2599,53.7537],[14.2297,53.7612],[14.2096,53.7473],[14.179,53.7351],[14.1672,53.7419],[14.1458,53.7418],[14.1244,53.7372],[14.1017,53.74],[14.0762,53.7471],[14.0598,53.7553],[14.0494,53.7528],[14.0052,53.7671],[13.9684,53.7731],[13.9664,53.7763],[13.9222,53.7977],[13.914,53.806],[13.9016,53.8024],[13.8823,53.818],[13.8723,53.8312],[13.8489,53.8433],[13.8258,53.8438],[13.8099,53.8582],[13.8247,53.8647],[13.8249,53.8772],[13.8472,53.878],[13.8566,53.8944],[13.8825,53.9086],[13.9004,53.9099],[13.9141,53.9219],[13.8937,53.943],[13.8813,53.9498],[13.852,53.9537],[13.8538,53.9646],[13.8351,53.9835],[13.8081,53.9957],[13.7969,53.9953],[13.76,54.0159],[13.7614,54.0357],[13.7854,54.0509],[13.7743,54.0603],[13.7906,54.065],[13.7953,54.0891],[13.804,54.0971],[13.7917,54.1074],[13.7751,54.11],[13.7531,54.1224],[13.7481,54.1398],[13.734,54.1359],[13.7187,54.1446],[13.6974,54.1489],[13.6962,54.1582],[13.7181,54.164],[13.6967,54.1719],[13.6493,54.153],[13.6279,54.1409],[13.5751,54.1317],[13.5296,54.1311],[13.4926,54.1252],[13.4777,54.1192],[13.4865,54.1012],[13.5001,54.0902],[13.4894,54.0838],[13.4647,54.088],[13.4403,54.1109],[13.4401,54.1228],[13.426,54.1395],[13.4051,54.1516],[13.3897,54.1427],[13.3802,54.1518],[13.4073,54.1623],[13.4042,54.1698],[13.379,54.1771],[13.3433,54.1655],[13.3297,54.1674],[13.3424,54.1823],[13.3271,54.1836],[13.3194,54.1935],[13.3063,54.2043],[13.2974,54.2247],[13.2838,54.2363],[13.2608,54.241],[13.2157,54.2412],[13.2166,54.2494],[13.1881,54.2652],[13.1328,54.269],[13.111,54.2782],[13.1033,54.29],[13.1104,54.3075],[13.0875,54.3201],[13.076,54.3488],[13.0938,54.3658],[13.0818,54.3799],[13.0729,54.3831],[13.0485,54.3801],[13.0249,54.3974],[13.0236,54.4206],[13.0343,54.4317],[13.0158,54.4394],[12.9995,54.436],[12.9861,54.425],[12.9589,54.4231],[12.9538,54.4166],[12.9236,54.413],[12.8977,54.4017],[12.886,54.3857],[12.8831,54.3689],[12.8463,54.3511],[12.8175,54.351],[12.804,54.3704],[12.785,54.3795],[12.7689,54.3716],[12.7203,54.3719],[12.7136,54.3866],[12.7145,54.4045],[12.7075,54.4119],[12.6853,54.4064],[12.6679,54.408],[12.6602,54.3986],[12.6671,54.3888],[12.6195,54.3723],[12.6028,54.371],[12.5946,54.3581],[12.5748,54.3582],[12.5734,54.3711],[12.5547,54.3725],[12.5363,54.3667],[12.5526,54.3596],[12.5381,54.3498],[12.5297,54.3348],[12.4731,54.3296],[12.4789,54.3043],[12.4334,54.2961],[12.4159,54.2874],[12.4078,54.2767],[12.4186,54.2583],[12.45,54.2545],[12.4543,54.2466],[12.4184,54.2464],[12.398,54.2512],[12.3632,54.2671],[12.3825,54.2781],[12.367,54.2885],[12.3583,54.3027],[12.3763,54.3088],[12.396,54.3235],[12.4007,54.3431],[12.4214,54.3435],[12.4159,54.3572],[12.4191,54.3705],[12.4353,54.3785],[12.4523,54.3811],[12.5017,54.3817],[12.5177,54.3727],[12.5264,54.3809],[12.5534,54.3902],[12.5787,54.3882],[12.576,54.4027],[12.5886,54.4081],[12.6099,54.4094],[12.6174,54.4181],[12.6406,54.4222],[12.6531,54.4105],[12.668,54.4101],[12.6685,54.4206],[12.691,54.4317],[12.719,54.4321],[12.7405,54.4151],[12.7641,54.4126],[12.7778,54.4178],[12.7996,54.4092],[12.8216,54.421],[12.8575,54.4208],[12.8739,54.4139],[12.9252,54.4258],[12.9162,54.4452],[12.852,54.4405],[12.6577,54.4434],[12.6145,54.4503],[12.5553,54.4557],[12.5261,54.4712],[12.5298,54.4814],[12.5139,54.4843],[12.5008,54.4749],[12.477,54.4405],[12.4664,54.4199],[12.435,54.3909],[12.4084,54.3776],[12.3518,54.3105],[12.3349,54.2963],[12.3065,54.2822],[12.2855,54.275],[12.2234,54.2543],[12.2011,54.2447],[12.1749,54.2291],[12.1513,54.2039],[12.1282,54.1864],[12.1231,54.1777],[12.1432,54.1742],[12.1376,54.1598],[12.1102,54.1593],[12.097,54.1519],[12.0964,54.1366],[12.102,54.1111],[12.0907,54.1109],[12.0859,54.1232],[12.0906,54.1312],[12.0839,54.1445],[12.0926,54.1538],[12.0963,54.1703],[12.0868,54.1851],[12.0716,54.1793],[12.0393,54.1764],[12.0121,54.1784],[11.9985,54.175],[11.948,54.1651],[11.888,54.151],[11.8533,54.1453],[11.7976,54.1468],[11.7614,54.1545],[11.6951,54.154],[11.68,54.1524],[11.6214,54.1141],[11.5948,54.1012],[11.5609,54.0965],[11.532,54.0752],[11.5421,54.0584],[11.5869,54.0928],[11.6137,54.1025],[11.6265,54.0896],[11.6245,54.0768],[11.6102,54.0698],[11.5826,54.0637],[11.5872,54.0473],[11.5772,54.0361],[11.5618,54.0281],[11.5334,54.0254],[11.5163,54.0152],[11.492,53.99],[11.4989,53.9818],[11.4795,53.9655],[11.4822,53.9476],[11.475,53.929],[11.4582,53.9167],[11.4343,53.9101],[11.4036,53.9215],[11.4057,53.9357],[11.3897,53.9391],[11.3675,53.9346],[11.3511,53.9426],[11.3369,53.9583],[11.3264,53.9569],[11.3168,53.9434],[11.2899,53.932],[11.2699,53.9318],[11.2456,53.9428],[11.2413,53.952],[11.2459,53.9732],[11.2601,53.9817],[11.2257,53.9828],[11.2072,53.9884],[11.18,54.0152],[11.1426,54.0096],[11.0971,54.014],[11.0474,54.0077],[11.0283,54.0033],[10.9846,53.9886],[10.9335,53.9649],[10.9037,53.9568],[10.8888,53.9586],[10.8821,53.9676],[10.8842,53.9794],[10.8683,53.9918],[10.8409,53.9919],[10.8238,53.9948],[10.8039,53.9921],[10.7872,53.9974],[10.7727,54.0094],[10.7518,54.0371],[10.7571,54.0566],[10.7919,54.076],[10.8006,54.0851],[10.8007,54.0988],[10.8239,54.089],[10.8552,54.089],[10.8644,54.0849],[10.8881,54.0927],[10.9262,54.1184],[10.9489,54.1379],[11.0512,54.1787],[11.0629,54.1887],[11.0938,54.1991],[11.0912,54.2186],[11.0819,54.2518],[11.0838,54.2793],[11.0767,54.3026],[11.0719,54.3422],[11.058,54.3524],[11.0705,54.3581],[11.0822,54.3528],[11.1259,54.374],[11.1288,54.3899],[11.1105,54.3968],[11.091,54.3919],[11.0787,54.3798],[11.0282,54.3681],[10.9986,54.3696],[10.9716,54.3824],[10.9518,54.3845],[10.9312,54.3819],[10.9097,54.3689],[10.874,54.3592],[10.8292,54.33],[10.7895,54.3121],[10.7587,54.306],[10.7398,54.3096],[10.7138,54.3051],[10.6841,54.3106],[10.6782,54.3214],[10.6509,54.3321],[10.6393,54.3475],[10.5985,54.3638],[10.5418,54.3794],[10.4994,54.3863],[10.4737,54.3925],[10.4212,54.4117],[10.394,54.4247],[10.3398,54.4348],[10.3021,54.4332],[10.2874,54.4269],[10.2898,54.4195],[10.2341,54.4157],[10.2188,54.4066],[10.2081,54.3874],[10.1992,54.3803],[10.196,54.366],[10.1782,54.3611],[10.1742,54.3457],[10.1578,54.3396],[10.1414,54.3539],[10.1483,54.3675],[10.1668,54.3779],[10.1607,54.3847],[10.1906,54.3896],[10.1927,54.4026],[10.1685,54.4328],[10.1927,54.4561],[10.1706,54.4692],[10.134,54.4843],[10.1178,54.4853],[10.0852,54.4807],[10.021,54.4754],[9.9975,54.4686],[9.9609,54.4666],[9.9323,54.4609],[9.9137,54.4524],[9.8652,54.4483],[9.8438,54.4612],[9.8443,54.4765],[9.8618,54.4727],[9.8798,54.4759],[9.9166,54.4887],[9.9647,54.5025],[9.9983,54.5217],[10.016,54.5459],[10.0261,54.5497],[10.0268,54.6035],[10.0336,54.6207],[10.0312,54.6366],[10.0325,54.6603],[10.0094,54.6618],[9.9769,54.6738],[9.9484,54.674],[9.9381,54.6607],[9.938,54.6454],[9.9452,54.6367],[9.939,54.6257],[9.9073,54.6152],[9.8779,54.5986],[9.8617,54.596],[9.8382,54.5841],[9.8237,54.5834],[9.8025,54.5666],[9.7793,54.5566],[9.7657,54.5557],[9.7488,54.5465],[9.7378,54.525],[9.7008,54.5144],[9.713,54.4988],[9.6974,54.4901],[9.6751,54.4961],[9.664,54.5072],[9.6288,54.5121],[9.5812,54.5019],[9.5604,54.5018],[9.5497,54.5115],[9.5867,54.5121],[9.6049,54.5206],[9.6052,54.5268],[9.6268,54.5309],[9.6369,54.5202],[9.6484,54.5236],[9.6972,54.5274],[9.7128,54.5204],[9.7197,54.5306],[9.7349,54.5323],[9.7379,54.5421],[9.7533,54.5576],[9.7675,54.5643],[9.7723,54.5761],[9.7888,54.5733],[9.819,54.5837],[9.8333,54.5972],[9.8594,54.6022],[9.8767,54.6096],[9.8964,54.6248],[9.9315,54.6281],[9.9303,54.6411],[9.9385,54.6701],[9.9459,54.6773],[9.9626,54.6788],[9.9795,54.6871],[9.9747,54.6937],[9.991,54.6996],[10.0019,54.6882],[10.0158,54.693],[9.9896,54.7176],[9.9803,54.7372],[9.9766,54.7574],[9.9572,54.7799],[9.9061,54.7973],[9.8998,54.7732],[9.8823,54.7639],[9.8724,54.7521],[9.8362,54.7588],[9.8017,54.7843],[9.7919,54.7978],[9.7723,54.7958],[9.7616,54.8011],[9.7102,54.8089],[9.6626,54.8235],[9.6531,54.8209],[9.6229,54.8319],[9.6074,54.8299],[9.5933,54.8401],[9.5914,54.8558],[9.6014,54.8683],[9.5737,54.8637],[9.5638,54.8544],[9.5167,54.8389],[9.4919,54.8226],[9.4673,54.8236],[9.4527,54.8075],[9.4343,54.8034],[9.4229,54.8232],[9.4111,54.8423],[9.3827,54.8392],[9.3725,54.8222],[9.3546,54.8144],[9.3421,54.8036],[9.2699,54.8122],[9.2501,54.8097],[9.2358,54.8311],[9.2448,54.8439],[9.2401,54.85],[9.1551,54.8707],[9.1134,54.8735],[9.0905,54.8702],[9.0482,54.8719],[9.0148,54.8864],[8.9842,54.8921],[8.9479,54.9026],[8.892,54.9049],[8.8487,54.8973],[8.837,54.9055],[8.799,54.9046],[8.7763,54.8955],[8.7551,54.8968],[8.728,54.8927],[8.6869,54.9088],[8.638,54.9113],[8.6377,54.8986],[8.6292,54.8917],[8.6005,54.8872],[8.5115,54.8842],[8.4865,54.8767],[8.4349,54.8764],[8.4201,54.8788],[8.3727,54.8969],[8.3621,54.9102],[8.3647,54.9224],[8.3599,54.9335],[8.3617,54.9578],[8.3531,54.9672],[8.3706,54.9895],[8.3955,55.0041],[8.439,55.0154],[8.426,55.0338],[8.3985,55.0363],[8.3992,55.0469],[8.448,55.0498],[8.4203,55.0587],[8.3976,55.0533],[8.3819,55.0357],[8.3462,54.9813],[8.3182,54.9448],[8.2979,54.9107],[8.2878,54.8767],[8.2786,54.7522],[8.2965,54.7454],[8.2957,54.7607],[8.3018,54.773],[8.292,54.786],[8.3005,54.818],[8.2935,54.8257],[8.2961,54.8424],[8.3081,54.8591],[8.3328,54.8633],[8.3332,54.8728],[8.3643,54.8759],[8.3757,54.8601],[8.402,54.8488],[8.4163,54.8475],[8.4542,54.8597],[8.4883,54.8746],[8.5139,54.8819],[8.6034,54.8857],[8.6127,54.8779],[8.6084,54.8404],[8.6438,54.8194],[8.6588,54.7957],[8.6859,54.7918],[8.7017,54.7737],[8.6974,54.7604],[8.7155,54.7377],[8.6942,54.731],[8.7195,54.7257],[8.7411,54.7164],[8.7517,54.6984],[8.7539,54.6813],[8.7818,54.6657],[8.8303,54.6534],[8.8461,54.6259],[8.8869,54.6079],[8.893,54.5968],[8.8686,54.5618],[8.8762,54.5513],[8.8715,54.5283],[8.8373,54.5086],[8.8126,54.5036],[8.8061,54.4959],[8.8181,54.485],[8.8074,54.4699],[8.8418,54.4606],[8.8934,54.4606],[8.925,54.4792],[8.9311,54.4918],[8.9469,54.4993],[8.9455,54.5124],[8.9829,54.524],[9.0084,54.4967],[9.0125,54.4844],[8.9993,54.4653],[8.9902,54.4601],[8.9636,54.4555],[8.9481,54.4396],[8.9315,54.4331],[8.9114,54.4177],[8.8712,54.4048],[8.8527,54.403],[8.8334,54.4085],[8.8084,54.4094],[8.7416,54.3988],[8.6989,54.3967],[8.6743,54.4],[8.6521,54.3888],[8.6494,54.3792],[8.6595,54.374],[8.691,54.3731],[8.6927,54.3578],[8.662,54.3482],[8.6441,54.3382],[8.6229,54.3429],[8.6032,54.3407],[8.6,54.329],[8.6032,54.3133],[8.6316,54.3009],[8.6511,54.2868],[8.6744,54.2788],[8.6891,54.2786],[8.7052,54.2869],[8.7376,54.2937],[8.7697,54.2831],[8.7917,54.2818],[8.8213,54.2913],[8.8418,54.2785],[8.8448,54.2656]],[[10.4545,47.5557],[10.4451,47.5673],[10.4296,47.5771],[10.437,47.5842],[10.4564,47.5827],[10.4726,47.587],[10.4732,47.5711],[10.4545,47.5557]]],[[[8.7013,47.7152],[8.6738,47.7048],[8.6777,47.6873],[8.6922,47.6952],[8.7149,47.6896],[8.7013,47.7152]]],[[[13.7976,54.174],[13.7739,54.1724],[13.7561,54.1655],[13.7497,54.1569],[13.7555,54.1377],[13.7723,54.1338],[13.7746,54.1208],[13.7925,54.1109],[13.8047,54.1102],[13.813,54.0988],[13.8083,54.0812],[13.8008,54.0748],[13.7906,54.0487],[13.7729,54.0408],[13.7635,54.0265],[13.7699,54.0192],[13.8013,54.0187],[13.8106,54.0312],[13.8449,54.0423],[13.8553,54.0485],[13.8797,54.0403],[13.8534,54.0141],[13.8647,54.0067],[13.8987,54.0121],[13.9173,54.0334],[13.9104,54.0488],[13.9185,54.0628],[13.9514,54.059],[13.9687,54.0599],[13.9977,54.0415],[14.0044,54.0107],[14.0214,54.0187],[14.0349,54.0158],[14.0476,53.9974],[14.0489,53.9806],[14.0354,53.9511],[14.0114,53.95],[13.9952,53.9628],[13.964,53.9574],[13.9724,53.9707],[13.9642,53.9746],[13.965,53.9898],[13.9451,53.9946],[13.9111,53.9912],[13.9003,53.9832],[13.8966,53.9637],[13.9227,53.9506],[13.9322,53.9354],[13.932,53.9203],[13.9383,53.9138],[13.9309,53.8994],[13.9189,53.888],[13.904,53.8858],[13.8917,53.8766],[13.8755,53.8779],[13.859,53.8717],[13.8341,53.871],[13.8262,53.8497],[13.8466,53.851],[13.8633,53.8427],[13.8908,53.8399],[13.9135,53.8432],[13.9217,53.8509],[13.9283,53.8694],[13.9547,53.8613],[13.9506,53.8503],[13.9618,53.8462],[13.9887,53.8483],[14.0077,53.8584],[14.0197,53.8693],[14.0433,53.8743],[14.0628,53.8695],[14.0847,53.8748],[14.1177,53.87],[14.1945,53.8721],[14.2118,53.867],[14.2154,53.8812],[14.2123,53.9003],[14.2039,53.9066],[14.2076,53.9159],[14.2261,53.9277],[14.1849,53.9466],[14.1433,53.9761],[14.05,54.0294],[14.0138,54.0548],[13.9689,54.0698],[13.9383,54.0747],[13.8992,54.0887],[13.8747,54.1003],[13.8403,54.1247],[13.8296,54.1365],[13.8122,54.1696],[13.7976,54.174]]],[[[6.1823,50.6451],[6.1833,50.6323],[6.2169,50.6322],[6.2355,50.6259],[6.2667,50.6272],[6.264,50.641],[6.243,50.6404],[6.2315,50.648],[6.2226,50.6401],[6.1866,50.6398],[6.1823,50.6451]]],[[[6.2379,50.5779],[6.2395,50.5875],[6.2252,50.5905],[6.2031,50.5693],[6.1744,50.5575],[6.178,50.5416],[6.1967,50.5362],[6.209,50.5546],[6.2233,50.5559],[6.2337,50.5661],[6.2379,50.5779]]],[[[7.4318,53.7271],[7.4304,53.7322],[7.3939,53.7361],[7.3604,53.728],[7.3886,53.7203],[7.4266,53.7203],[7.4318,53.7271]]],[[[7.3439,53.7255],[7.3148,53.7269],[7.2304,53.7224],[7.1863,53.7227],[7.1434,53.7112],[7.1413,53.7012],[7.1528,53.6969],[7.1695,53.7012],[7.1991,53.7003],[7.2155,53.7036],[7.2702,53.7037],[7.3218,53.7121],[7.3408,53.7182],[7.3439,53.7255]]],[[[6.7847,53.6126],[6.7681,53.617],[6.6565,53.6079],[6.6475,53.6047],[6.6565,53.585],[6.6653,53.5775],[6.6974,53.5654],[6.7169,53.5709],[6.7451,53.5697],[6.7272,53.5813],[6.7546,53.5962],[6.7879,53.5972],[6.8178,53.603],[6.7847,53.6126]]],[[[11.473,54.0244],[11.4551,54.0232],[11.404,54.0088],[11.3742,53.9923],[11.3779,53.9754],[11.3872,53.9702],[11.4266,53.9674],[11.4281,53.9861],[11.4455,53.9974],[11.4435,53.9606],[11.4639,53.9665],[11.4804,53.9818],[11.4782,53.998],[11.491,54.0008],[11.4963,54.0156],[11.4922,54.0226],[11.473,54.0244]]],[[[7.7245,53.782],[7.7003,53.781],[7.6834,53.7764],[7.6658,53.7602],[7.675,53.7524],[7.7072,53.7632],[7.7401,53.7607],[7.7952,53.7693],[7.8133,53.781],[7.7245,53.782]]],[[[7.5653,53.7592],[7.4909,53.7566],[7.4693,53.7461],[7.4603,53.7257],[7.476,53.7215],[7.5015,53.7307],[7.5116,53.7433],[7.5389,53.7432],[7.5691,53.7481],[7.611,53.7462],[7.6306,53.7481],[7.639,53.756],[7.5991,53.759],[7.5653,53.7592]]],[[[11.0862,54.5306],[11.0607,54.5333],[11.0312,54.5118],[11.0103,54.4826],[11.0043,54.449],[11.0216,54.4378],[11.037,54.4465],[11.0632,54.4528],[11.097,54.4433],[11.1018,54.4316],[11.0949,54.4226],[11.0951,54.4095],[11.121,54.4021],[11.173,54.4015],[11.1661,54.4128],[11.1731,54.4196],[11.197,54.4199],[11.2102,54.4139],[11.255,54.4113],[11.2743,54.4064],[11.3127,54.4023],[11.2981,54.4308],[11.2794,54.4459],[11.2758,54.4563],[11.2535,54.4711],[11.2424,54.4935],[11.2258,54.505],[11.1968,54.5091],[11.1655,54.5225],[11.1353,54.5241],[11.0862,54.5306]]],[[[13.137,54.6048],[13.1188,54.6031],[13.0978,54.5902],[13.1025,54.5774],[13.0927,54.5462],[13.086,54.5381],[13.0793,54.5172],[13.0656,54.4924],[13.0602,54.4749],[13.073,54.4689],[13.0846,54.5192],[13.1169,54.538],[13.1172,54.5513],[13.11,54.5819],[13.1299,54.5916],[13.1449,54.5888],[13.1468,54.6034],[13.137,54.6048]]],[[[13.1836,54.494],[13.1579,54.4881],[13.1438,54.4783],[13.1206,54.4438],[13.1634,54.4499],[13.1699,54.4568],[13.1817,54.4561],[13.1868,54.4654],[13.2269,54.4739],[13.2226,54.4839],[13.2007,54.4855],[13.1836,54.494]]],[[[13.4304,54.6843],[13.4063,54.6822],[13.3742,54.6834],[13.3361,54.6754],[13.2876,54.6738],[13.2511,54.6606],[13.2199,54.6408],[13.2257,54.6123],[13.2148,54.5956],[13.1826,54.5772],[13.1679,54.574],[13.1602,54.5639],[13.1828,54.5646],[13.214,54.5843],[13.2284,54.5874],[13.2373,54.599],[13.2302,54.6091],[13.2275,54.6255],[13.2643,54.6433],[13.2824,54.6457],[13.2875,54.6253],[13.2767,54.6093],[13.2595,54.5937],[13.2433,54.5595],[13.2778,54.5644],[13.3324,54.5819],[13.3275,54.5932],[13.3435,54.5987],[13.3536,54.6112],[13.3711,54.6143],[13.3843,54.5957],[13.3844,54.5818],[13.3979,54.5723],[13.427,54.5674],[13.4461,54.5516],[13.4916,54.5523],[13.5022,54.5483],[13.5146,54.5133],[13.5001,54.4926],[13.5033,54.4793],[13.5267,54.4803],[13.5481,54.4749],[13.5476,54.447],[13.5572,54.4385],[13.5398,54.4336],[13.5413,54.4193],[13.5317,54.4162],[13.4763,54.4246],[13.4756,54.4326],[13.5131,54.4422],[13.5075,54.4503],[13.4733,54.4518],[13.4715,54.4578],[13.4838,54.4737],[13.4701,54.4816],[13.4509,54.4734],[13.4399,54.4881],[13.4136,54.4936],[13.4074,54.5026],[13.4146,54.5199],[13.3963,54.5378],[13.3796,54.5475],[13.3741,54.5603],[13.3556,54.5463],[13.3888,54.5396],[13.3877,54.5313],[13.3715,54.5222],[13.3453,54.5248],[13.3607,54.5366],[13.3494,54.5517],[13.369,54.5789],[13.355,54.581],[13.2998,54.555],[13.3121,54.5244],[13.3086,54.5151],[13.2884,54.5217],[13.2894,54.5416],[13.2553,54.5519],[13.2384,54.5543],[13.1744,54.5457],[13.1442,54.547],[13.1597,54.5355],[13.1624,54.5138],[13.1707,54.5078],[13.2012,54.504],[13.2314,54.5109],[13.2274,54.4868],[13.2358,54.4827],[13.2556,54.4865],[13.2583,54.474],[13.2422,54.4727],[13.2177,54.4592],[13.1702,54.4535],[13.1618,54.4381],[13.15,54.4297],[13.1509,54.4219],[13.1717,54.4252],[13.1891,54.4232],[13.2128,54.4291],[13.2205,54.4138],[13.2416,54.3848],[13.2347,54.3695],[13.2031,54.3711],[13.197,54.3759],[13.1735,54.3716],[13.1576,54.3749],[13.1362,54.3734],[13.1238,54.3659],[13.1217,54.3508],[13.1137,54.3348],[13.135,54.3241],[13.1351,54.3174],[13.1696,54.3098],[13.1403,54.2969],[13.1442,54.2814],[13.1693,54.2896],[13.1811,54.2874],[13.193,54.2971],[13.1992,54.2705],[13.2171,54.273],[13.2398,54.2663],[13.2465,54.2597],[13.2682,54.2537],[13.2874,54.2592],[13.3266,54.2549],[13.316,54.2413],[13.3816,54.2293],[13.3916,54.2218],[13.4251,54.2392],[13.4185,54.2545],[13.4016,54.2657],[13.3788,54.2533],[13.3593,54.2724],[13.3844,54.2776],[13.3954,54.2722],[13.4132,54.2901],[13.4196,54.3028],[13.4483,54.3147],[13.4613,54.3159],[13.4667,54.3304],[13.4795,54.3303],[13.5094,54.3441],[13.5508,54.3397],[13.5715,54.3518],[13.588,54.3521],[13.6035,54.3442],[13.6116,54.3309],[13.637,54.3385],[13.6376,54.3453],[13.6816,54.35],[13.677,54.3297],[13.7047,54.3225],[13.6986,54.316],[13.6581,54.3045],[13.6454,54.2981],[13.6551,54.2885],[13.6887,54.2907],[13.7022,54.2956],[13.7095,54.2799],[13.7193,54.3115],[13.7352,54.3314],[13.7451,54.337],[13.7418,54.3475],[13.7212,54.3591],[13.7048,54.3806],[13.6729,54.4012],[13.623,54.3992],[13.6006,54.4124],[13.5781,54.4391],[13.5699,54.4672],[13.578,54.4796],[13.5972,54.4881],[13.6076,54.4975],[13.6468,54.5144],[13.6686,54.5205],[13.6818,54.5432],[13.6799,54.5623],[13.6612,54.5758],[13.6387,54.5844],[13.5883,54.5844],[13.4908,54.5731],[13.4713,54.5754],[13.4604,54.5706],[13.435,54.5746],[13.4073,54.5874],[13.3837,54.612],[13.3772,54.6349],[13.3876,54.6495],[13.4285,54.6601],[13.4389,54.6775],[13.4304,54.6843]]]]}}